{"pacific":{"bounds":[-127.5,46.7,-122.0,49.7],"land":{"type":"FeatureCollection","features":[{"type":"Feature","properties":{"name":"United States of America"},"geometry":{"type":"MultiPolygon","coordinates":[[[[-122.753017,48.992515],[-122.0,48.992515],[-122.0,46.7],[-123.82084448026349,46.7],[-123.839752,46.717434],[-123.899996,46.747406],[-123.912232,46.741023],[-123.913002,46.727769],[-123.951786,46.724834],[-123.976129,46.741055],[-123.981956,46.720438],[-123.974818,46.711102],[-123.963346,46.707162],[-123.972698,46.701262],[-124.02509,46.712628],[-124.029856,46.72016],[-124.093379,46.743228],[-124.100599,46.761478],[-124.101308,46.808661],[-124.114084,46.849107],[-124.130483,46.885972],[-124.12682,46.898505],[-124.111782,46.912326],[-124.090879,46.900013],[-124.097564,46.877875],[-124.077382,46.858791],[-124.072499,46.842922],[-124.058095,46.844468],[-124.021311,46.832343],[-124.013824,46.842475],[-124.014719,46.851142],[-124.031565,46.870266],[-124.057045,46.862086],[-124.05487,46.875873],[-124.046928,46.891136],[-124.033226,46.898024],[-124.006703,46.899237],[-123.962636,46.918036],[-123.813059,46.95897],[-123.82811,46.965227],[-123.844709,46.960843],[-123.867909,46.969631],[-123.950101,46.968402],[-123.955865,46.97235],[-123.922271,46.980129],[-123.965218,46.984185],[-124.012884,46.983726],[-124.019364,46.994077],[-124.012836,47.009348],[-124.027699,47.028144],[-124.065546,47.037471],[-124.11687,47.042917],[-124.139277,47.035527],[-124.148183,47.0244],[-124.136708,47.001899],[-124.136599,46.967943],[-124.123582,46.946574],[-124.111059,46.947996],[-124.104797,46.944707],[-124.10576,46.933421],[-124.122133,46.94131],[-124.138029,46.944596],[-124.148142,46.942621],[-124.153437,46.938016],[-124.153428,46.930124],[-124.178461,46.925507],[-124.172286,46.981427],[-124.171892,47.041949],[-124.17927,47.106879],[-124.199835,47.18748],[-124.211707,47.226638],[-124.242932,47.290079],[-124.253693,47.30154],[-124.275984,47.302628],[-124.299257,47.348205],[-124.271718,47.342597],[-124.283092,47.351234],[-124.308364,47.352669],[-124.317808,47.357351],[-124.348696,47.499753],[-124.350819,47.54682],[-124.383606,47.636017],[-124.410782,47.688184],[-124.415835,47.725587],[-124.42276,47.741889],[-124.446767,47.750393],[-124.455881,47.761786],[-124.476566,47.778255],[-124.483469,47.812934],[-124.541612,47.834331],[-124.567983,47.869696],[-124.593133,47.8762],[-124.609507,47.874855],[-124.63813,47.907864],[-124.671986,47.990709],[-124.693847,48.07453],[-124.689443,48.100165],[-124.734607,48.170404],[-124.719236,48.176296],[-124.700066,48.191859],[-124.689443,48.213446],[-124.689768,48.218899],[-124.705517,48.245979],[-124.703627,48.249855],[-124.689133,48.252508],[-124.682478,48.2635],[-124.683217,48.284735],[-124.67984,48.293687],[-124.664906,48.309068],[-124.661488,48.319525],[-124.670537,48.324169],[-124.669678,48.333188],[-124.689109,48.337616],[-124.718251,48.357367],[-124.730256,48.371578],[-124.727528,48.387728],[-124.696518,48.391086],[-124.63816,48.383001],[-124.619555,48.368915],[-124.607974,48.366326],[-124.593367,48.374856],[-124.574894,48.370408],[-124.457997,48.31684],[-124.399214,48.29358],[-124.346832,48.281073],[-124.296342,48.261545],[-124.274007,48.257051],[-124.250846,48.262899],[-124.227651,48.258531],[-124.111414,48.215931],[-124.099841,48.200473],[-124.050182,48.177263],[-123.997077,48.172694],[-123.970991,48.165598],[-123.873425,48.161552],[-123.861884,48.156394],[-123.818339,48.160775],[-123.788889,48.153144],[-123.700344,48.164911],[-123.641695,48.151192],[-123.633873,48.141447],[-123.5846,48.135417],[-123.567037,48.146934],[-123.552393,48.151362],[-123.535028,48.145465],[-123.523617,48.1351],[-123.505483,48.132636],[-123.475606,48.133607],[-123.435896,48.142407],[-123.405022,48.138998],[-123.453429,48.131549],[-123.449661,48.125109],[-123.421734,48.117828],[-123.322326,48.114613],[-123.287461,48.118217],[-123.246927,48.115334],[-123.223622,48.122016],[-123.170601,48.164374],[-123.150033,48.177102],[-123.108251,48.183838],[-123.130722,48.173712],[-123.161285,48.151923],[-123.111809,48.149028],[-123.089182,48.128485],[-123.063029,48.117603],[-123.040454,48.085113],[-123.045277,48.059719],[-123.029693,48.045233],[-123.007883,48.03856],[-122.996816,48.038642],[-123.005727,48.078681],[-122.999135,48.091742],[-122.956939,48.09748],[-122.92748,48.09512],[-122.921742,48.086127],[-122.918772,48.070217],[-122.910797,48.066107],[-122.886952,48.062567],[-122.872548,48.04975],[-122.857289,48.029527],[-122.853383,48.010443],[-122.87328,48.001125],[-122.87328,47.99372],[-122.85436,47.995266],[-122.841379,48.005561],[-122.824859,48.035224],[-122.836903,48.049872],[-122.877065,48.079657],[-122.881663,48.091742],[-122.877756,48.106635],[-122.868316,48.119289],[-122.856272,48.124579],[-122.823842,48.13109],[-122.794911,48.141181],[-122.770172,48.141099],[-122.750396,48.117174],[-122.784535,48.102932],[-122.791371,48.096747],[-122.791982,48.082913],[-122.77538,48.065579],[-122.764638,48.044623],[-122.722483,47.99372],[-122.688344,47.973212],[-122.682525,47.944078],[-122.67809,47.935696],[-122.62621,47.889553],[-122.620107,47.877631],[-122.628245,47.873521],[-122.667836,47.870795],[-122.676422,47.862128],[-122.683909,47.843207],[-122.692047,47.832587],[-122.736399,47.79442],[-122.750396,47.774563],[-122.768666,47.737982],[-122.781077,47.692043],[-122.800364,47.679877],[-122.811879,47.678371],[-122.828481,47.683173],[-122.829213,47.694078],[-122.818023,47.713121],[-122.799794,47.777289],[-122.79894,47.806708],[-122.805653,47.843451],[-122.817291,47.830268],[-122.821604,47.792426],[-122.839182,47.78205],[-122.840403,47.802314],[-122.846791,47.820299],[-122.856435,47.826077],[-122.867096,47.809272],[-122.866363,47.793524],[-122.858266,47.775458],[-122.839182,47.746649],[-122.861928,47.733344],[-122.886627,47.688137],[-122.903961,47.673163],[-122.910024,47.650092],[-122.941762,47.634914],[-123.021067,47.56566],[-123.065094,47.493394],[-123.119374,47.44953],[-123.133372,47.412299],[-123.158437,47.372056],[-123.161285,47.356838],[-123.130238,47.340644],[-123.074127,47.344631],[-122.905141,47.394965],[-122.871571,47.409857],[-122.839182,47.431952],[-122.867747,47.436265],[-122.907053,47.423814],[-122.976308,47.391018],[-123.052235,47.367011],[-123.091868,47.367377],[-123.113515,47.391018],[-123.110504,47.405097],[-123.063303,47.456732],[-123.022613,47.522895],[-122.949045,47.597073],[-122.87328,47.631171],[-122.798207,47.651679],[-122.77538,47.660712],[-122.763539,47.669135],[-122.742787,47.726874],[-122.733754,47.74258],[-122.634877,47.839667],[-122.623647,47.847154],[-122.613189,47.850287],[-122.595693,47.847235],[-122.594146,47.839789],[-122.596995,47.830715],[-122.592152,47.822984],[-122.570953,47.81977],[-122.566518,47.834459],[-122.571441,47.857082],[-122.588287,47.904446],[-122.610992,47.935981],[-122.613189,47.94595],[-122.553375,47.920844],[-122.528066,47.905504],[-122.51769,47.881049],[-122.510243,47.832587],[-122.504221,47.822455],[-122.493764,47.814032],[-122.490061,47.80386],[-122.504018,47.788235],[-122.475168,47.776068],[-122.469228,47.768378],[-122.468373,47.756537],[-122.4829,47.737006],[-122.492909,47.735256],[-122.541086,47.742865],[-122.557973,47.740424],[-122.555776,47.728705],[-122.564687,47.712551],[-122.579701,47.698188],[-122.595855,47.691962],[-122.651601,47.732571],[-122.661041,47.730455],[-122.658111,47.717963],[-122.628407,47.692939],[-122.592152,47.597073],[-122.599599,47.590237],[-122.592152,47.58275],[-122.616933,47.574123],[-122.643788,47.595852],[-122.681508,47.651679],[-122.694569,47.634101],[-122.696929,47.623114],[-122.69579,47.610053],[-122.690012,47.596625],[-122.681549,47.590522],[-122.64684,47.576972],[-122.63915,47.577053],[-122.647369,47.562323],[-122.675933,47.537665],[-122.681508,47.527533],[-122.630198,47.544379],[-122.585927,47.569078],[-122.553131,47.583401],[-122.543202,47.566799],[-122.541615,47.540961],[-122.534088,47.527533],[-122.507924,47.520331],[-122.509592,47.502916],[-122.522694,47.481757],[-122.538319,47.437486],[-122.551625,47.414008],[-122.556223,47.391995],[-122.537506,47.370551],[-122.545074,47.356431],[-122.555247,47.346625],[-122.585927,47.336371],[-122.560658,47.301337],[-122.556996,47.284613],[-122.568512,47.264065],[-122.583485,47.264228],[-122.661041,47.287909],[-122.686269,47.301215],[-122.683461,47.31037],[-122.669504,47.319485],[-122.653472,47.349189],[-122.63858,47.363227],[-122.627919,47.37995],[-122.633127,47.404608],[-122.640614,47.385972],[-122.653635,47.376532],[-122.688344,47.364325],[-122.710439,47.34516],[-122.725942,47.339057],[-122.729075,47.320624],[-122.748606,47.295356],[-122.753082,47.281195],[-122.747629,47.267279],[-122.723297,47.238471],[-122.724477,47.232611],[-122.736724,47.219672],[-122.736928,47.224555],[-122.750396,47.212836],[-122.742584,47.197903],[-122.742991,47.191718],[-122.772776,47.173082],[-122.798695,47.204983],[-122.814849,47.250881],[-122.814931,47.274319],[-122.795562,47.280666],[-122.78661,47.296088],[-122.784006,47.315253],[-122.784535,47.34276],[-122.791371,47.364325],[-122.80663,47.376532],[-122.811106,47.383775],[-122.805653,47.397773],[-122.820139,47.383287],[-122.836578,47.334296],[-122.846018,47.315863],[-122.870025,47.299262],[-122.88565,47.291327],[-122.913401,47.285305],[-122.920481,47.278022],[-122.949778,47.202297],[-122.965077,47.181138],[-122.990631,47.165025],[-123.043284,47.154446],[-123.068349,47.145941],[-123.078765,47.130276],[-123.040924,47.144232],[-123.021637,47.144436],[-123.017934,47.130276],[-123.029408,47.121527],[-123.068105,47.112494],[-123.078765,47.096137],[-123.05899,47.102688],[-122.968902,47.147691],[-122.942209,47.178046],[-122.930247,47.174465],[-122.934682,47.15998],[-122.979075,47.101508],[-122.992543,47.090888],[-123.010487,47.082506],[-122.987457,47.081],[-122.964589,47.089993],[-122.945872,47.107164],[-122.935414,47.130276],[-122.929311,47.120429],[-122.927317,47.109809],[-122.929311,47.09927],[-122.935414,47.089301],[-122.925649,47.078315],[-122.918202,47.056138],[-122.90807,47.048326],[-122.8933,47.047268],[-122.892974,47.057359],[-122.90807,47.082506],[-122.895823,47.092597],[-122.901235,47.130276],[-122.892405,47.142076],[-122.852854,47.165025],[-122.847401,47.155219],[-122.847971,47.146064],[-122.85969,47.130276],[-122.8308,47.136786],[-122.820953,47.142076],[-122.822662,47.160102],[-122.817128,47.165717],[-122.798207,47.15762],[-122.772776,47.127753],[-122.748158,47.120022],[-122.735748,47.111477],[-122.72643,47.100409],[-122.722483,47.089301],[-122.685902,47.104397],[-122.652333,47.128079],[-122.571604,47.209296],[-122.550201,47.242336],[-122.537099,47.278551],[-122.537506,47.315863],[-122.448476,47.268459],[-122.433095,47.264879],[-122.418609,47.269477],[-122.40038,47.281073],[-122.427602,47.296536],[-122.429555,47.304877],[-122.422027,47.315863],[-122.391265,47.333686],[-122.339467,47.346584],[-122.328481,47.357123],[-122.323598,47.372545],[-122.325266,47.391018],[-122.333648,47.40412],[-122.360951,47.429999],[-122.366811,47.442206],[-122.366689,47.485338],[-122.370229,47.497138],[-122.388417,47.520819],[-122.409047,47.574937],[-122.390452,47.593695],[-122.377919,47.596177],[-122.345774,47.562323],[-122.339996,47.598944],[-122.345204,47.611965],[-122.359364,47.623725],[-122.413482,47.641669],[-122.428782,47.660386],[-122.42516,47.66474],[-122.413686,47.667467],[-122.406809,47.683295],[-122.384674,47.70897],[-122.381093,47.72016],[-122.387563,47.752346],[-122.398346,47.762926],[-122.406117,47.777899],[-122.404368,47.797593],[-122.399485,47.813951],[-122.382192,47.839057],[-122.35261,47.856269],[-122.339711,47.872789],[-122.334218,47.910468],[-122.324574,47.924384],[-122.324534,47.934149],[-122.320424,47.942084],[-122.27717,47.967434],[-122.241607,47.972805],[-122.212799,47.986802],[-122.207346,48.01439],[-122.191721,48.026313],[-122.193512,48.030951],[-122.207509,48.037543],[-122.221588,48.038153],[-122.238108,48.026313],[-122.307729,48.065375],[-122.340159,48.090033],[-122.362294,48.122504],[-122.367747,48.159613],[-122.365712,48.190579],[-122.3756,48.213202],[-122.41686,48.225531],[-122.435943,48.234605],[-122.444203,48.232367],[-122.448964,48.222846],[-122.446116,48.202216],[-122.466624,48.192043],[-122.469472,48.177069],[-122.465728,48.159084],[-122.457875,48.143622],[-122.432118,48.122463],[-122.414622,48.112494],[-122.384104,48.101467],[-122.36913,48.085679],[-122.348012,48.054267],[-122.366038,48.0539],[-122.377431,48.060248],[-122.405629,48.087795],[-122.489654,48.130439],[-122.510365,48.147447],[-122.526112,48.170966],[-122.533274,48.196112],[-122.531239,48.219875],[-122.53395,48.249677],[-122.445912,48.261054],[-122.429921,48.259101],[-122.400787,48.235256],[-122.388987,48.239814],[-122.393707,48.249986],[-122.390614,48.260199],[-122.375315,48.280748],[-122.385854,48.303778],[-122.425364,48.330227],[-122.455149,48.342475],[-122.478627,48.359809],[-122.491363,48.365058],[-122.522694,48.368964],[-122.533762,48.374661],[-122.553538,48.401313],[-122.567047,48.409898],[-122.567047,48.417385],[-122.552073,48.427883],[-122.558949,48.434027],[-122.584462,48.437812],[-122.591705,48.434068],[-122.615549,48.409898],[-122.646596,48.403754],[-122.661773,48.406236],[-122.673573,48.413642],[-122.683461,48.430162],[-122.663319,48.454901],[-122.669342,48.472805],[-122.704905,48.486274],[-122.702382,48.497992],[-122.672475,48.498969],[-122.633046,48.516262],[-122.613271,48.500312],[-122.597035,48.474555],[-122.580719,48.458319],[-122.580881,48.484524],[-122.568349,48.489488],[-122.551015,48.481513],[-122.527211,48.460354],[-122.514272,48.453192],[-122.5006,48.450426],[-122.488881,48.454901],[-122.480824,48.464097],[-122.480133,48.470282],[-122.494252,48.529364],[-122.515859,48.557603],[-122.55602,48.576606],[-122.567006,48.585354],[-122.54662,48.58869],[-122.525136,48.583197],[-122.485341,48.559801],[-122.468088,48.554511],[-122.447621,48.562161],[-122.440297,48.580715],[-122.444325,48.603258],[-122.457875,48.62344],[-122.48412,48.634752],[-122.492584,48.643256],[-122.497141,48.653551],[-122.502553,48.684882],[-122.525136,48.692288],[-122.521108,48.709052],[-122.49885,48.739488],[-122.508616,48.755683],[-122.529937,48.768622],[-122.554677,48.77733],[-122.574534,48.780463],[-122.593617,48.774115],[-122.639719,48.722398],[-122.65038,48.718166],[-122.660146,48.722561],[-122.667348,48.731879],[-122.670155,48.742906],[-122.649648,48.763658],[-122.658193,48.77733],[-122.676991,48.793443],[-122.695953,48.800767],[-122.704905,48.787909],[-122.700592,48.812161],[-122.703847,48.827379],[-122.714223,48.838202],[-122.757558,48.864244],[-122.768219,48.87401],[-122.772532,48.886542],[-122.768381,48.897406],[-122.745839,48.91767],[-122.75886,48.93594],[-122.808095,48.934516],[-122.813547,48.951809],[-122.801015,48.962307],[-122.777496,48.964789],[-122.731557,48.959215],[-122.753017,48.992515]]],[[[-123.035308,48.992499],[-123.045277,48.984361],[-123.08849,48.972235],[-123.090506,48.992515],[-123.035308,48.992499]]],[[[-122.422434,47.40884],[-122.366811,47.383531],[-122.417795,47.370795],[-122.469228,47.336371],[-122.474721,47.349555],[-122.473785,47.36286],[-122.466379,47.373196],[-122.44225,47.382514],[-122.439849,47.392808],[-122.446401,47.40058],[-122.463043,47.397773],[-122.455637,47.391018],[-122.485422,47.379828],[-122.489735,47.373928],[-122.490224,47.353827],[-122.496571,47.336371],[-122.503407,47.331529],[-122.510487,47.332099],[-122.527252,47.346259],[-122.531484,47.35692],[-122.51769,47.380439],[-122.510243,47.455797],[-122.503977,47.467475],[-122.471018,47.495795],[-122.455637,47.500881],[-122.462066,47.486762],[-122.441314,47.466742],[-122.435129,47.425727],[-122.422434,47.40884]]],[[[-122.5006,47.611721],[-122.488637,47.589586],[-122.480377,47.586859],[-122.498769,47.571234],[-122.520863,47.573961],[-122.542348,47.595526],[-122.557607,47.597886],[-122.570546,47.596096],[-122.57787,47.601549],[-122.569569,47.618109],[-122.567698,47.629584],[-122.579254,47.648668],[-122.580474,47.662991],[-122.578928,47.669379],[-122.561879,47.685614],[-122.558013,47.695746],[-122.557769,47.713813],[-122.547922,47.716986],[-122.537709,47.714789],[-122.510976,47.695868],[-122.505849,47.663275],[-122.499623,47.648668],[-122.489858,47.641262],[-122.503285,47.630032],[-122.510976,47.62759],[-122.500152,47.619289],[-122.5006,47.611721]]],[[[-122.718902,48.10224],[-122.709218,48.10224],[-122.701161,48.097602],[-122.686879,48.073228],[-122.677113,48.048651],[-122.673207,48.023749],[-122.681508,48.00727],[-122.700185,48.007758],[-122.7176,48.023017],[-122.736724,48.055732],[-122.740875,48.074368],[-122.738922,48.082506],[-122.729319,48.082994],[-122.723012,48.076239],[-122.720326,48.054755],[-122.716298,48.048285],[-122.701975,48.049221],[-122.70165,48.064399],[-122.711985,48.083645],[-122.729319,48.096747],[-122.718902,48.10224]]],[[[-122.359364,47.97663],[-122.346791,47.950588],[-122.349477,47.94595],[-122.381907,47.907782],[-122.392974,47.905097],[-122.395823,47.91649],[-122.40038,47.919176],[-122.435414,47.910468],[-122.441314,47.915473],[-122.443349,47.936916],[-122.449696,47.959459],[-122.46052,47.977851],[-122.476064,47.986884],[-122.488515,47.985093],[-122.51769,47.966295],[-122.530344,47.967353],[-122.539215,47.972154],[-122.562001,47.987372],[-122.58019,48.004869],[-122.593332,48.025377],[-122.592152,48.04206],[-122.609771,48.060492],[-122.614858,48.074897],[-122.600168,48.130113],[-122.607249,48.153754],[-122.622955,48.163316],[-122.644399,48.161444],[-122.668446,48.15058],[-122.693227,48.180243],[-122.723541,48.192694],[-122.74413,48.205878],[-122.755727,48.229641],[-122.75121,48.249945],[-122.668446,48.36286],[-122.656565,48.385077],[-122.630849,48.38467],[-122.595774,48.401923],[-122.57901,48.377143],[-122.577707,48.356676],[-122.515981,48.321967],[-122.517568,48.294013],[-122.530873,48.28384],[-122.546376,48.281399],[-122.562123,48.2862],[-122.593984,48.307929],[-122.608998,48.29914],[-122.627431,48.267279],[-122.641265,48.287991],[-122.646799,48.280829],[-122.651357,48.249945],[-122.665924,48.242174],[-122.723704,48.233791],[-122.710072,48.221422],[-122.696116,48.22016],[-122.665028,48.226386],[-122.651926,48.224066],[-122.59553,48.20539],[-122.580637,48.188463],[-122.571034,48.166246],[-122.558665,48.121324],[-122.554596,48.066067],[-122.54662,48.017035],[-122.535512,48.005927],[-122.522043,48.011949],[-122.510243,48.035224],[-122.522857,48.057074],[-122.524037,48.079413],[-122.514027,48.090766],[-122.493153,48.079657],[-122.460032,48.053453],[-122.381093,48.015815],[-122.365549,47.999661],[-122.359364,47.97663]]],[[[-122.858469,48.472846],[-122.849355,48.461615],[-122.836293,48.459947],[-122.820953,48.472602],[-122.808339,48.458197],[-122.806142,48.442043],[-122.8131,48.427314],[-122.827748,48.417385],[-122.889882,48.42414],[-122.883453,48.441474],[-122.898671,48.447903],[-122.921376,48.450995],[-122.937611,48.458319],[-122.942535,48.475775],[-122.937001,48.493232],[-122.924875,48.507148],[-122.910308,48.513577],[-122.916249,48.523871],[-122.916982,48.533637],[-122.910308,48.547065],[-122.887074,48.563666],[-122.877024,48.565863],[-122.860748,48.539618],[-122.859039,48.521308],[-122.861928,48.489325],[-122.858469,48.472846]]],[[[-122.693715,48.585924],[-122.67455,48.568793],[-122.685902,48.556952],[-122.688059,48.547024],[-122.694081,48.543524],[-122.714345,48.541938],[-122.72289,48.548163],[-122.73705,48.577135],[-122.735422,48.590399],[-122.726796,48.601508],[-122.715484,48.606024],[-122.70287,48.600409],[-122.693715,48.585924]]],[[[-123.020172,48.499335],[-122.999135,48.472602],[-122.9829,48.463609],[-122.964955,48.458319],[-122.964955,48.451483],[-122.979319,48.456366],[-123.016469,48.451483],[-123.030019,48.453803],[-123.065419,48.478502],[-123.102651,48.480292],[-123.139312,48.495836],[-123.154449,48.513129],[-123.166575,48.543524],[-123.177561,48.598822],[-123.158437,48.614569],[-123.12914,48.620063],[-123.102122,48.609117],[-123.093821,48.597602],[-123.057769,48.572903],[-123.024648,48.562812],[-123.004303,48.539455],[-122.977651,48.531317],[-122.97997,48.525133],[-122.992258,48.513577],[-123.002349,48.509182],[-123.016591,48.51142],[-123.020172,48.499335]]],[[[-122.750885,48.654731],[-122.800445,48.629625],[-122.808949,48.611274],[-122.820953,48.609117],[-122.841379,48.620917],[-122.865875,48.649604],[-122.88679,48.696275],[-122.896352,48.699774],[-122.905914,48.697333],[-122.910308,48.687974],[-122.905629,48.666083],[-122.910308,48.657538],[-122.861928,48.601711],[-122.874379,48.593736],[-122.887522,48.589993],[-122.917144,48.58869],[-122.933339,48.59276],[-122.951283,48.62344],[-122.980092,48.638617],[-122.985463,48.633043],[-122.989613,48.604641],[-122.99706,48.597154],[-123.009633,48.605414],[-123.026519,48.626532],[-123.026357,48.636461],[-123.020904,48.642483],[-122.997141,48.66059],[-122.977773,48.667792],[-122.929311,48.708441],[-122.917958,48.711412],[-122.857818,48.708686],[-122.745839,48.664374],[-122.750885,48.654731]]],[[[-122.615346,48.658637],[-122.613149,48.648424],[-122.620473,48.645941],[-122.662221,48.670315],[-122.703114,48.707913],[-122.716542,48.715237],[-122.720286,48.724921],[-122.715159,48.739081],[-122.698476,48.734687],[-122.671376,48.70482],[-122.635162,48.683295],[-122.615346,48.658637]]],[[[-122.685536,47.180609],[-122.675608,47.176337],[-122.671376,47.164984],[-122.677073,47.139553],[-122.689768,47.129584],[-122.706776,47.123969],[-122.742177,47.143744],[-122.746409,47.153713],[-122.7294,47.162177],[-122.718088,47.180609],[-122.685536,47.180609]]],[[[-122.86677,47.278266],[-122.869537,47.242865],[-122.848297,47.220201],[-122.848297,47.193305],[-122.85969,47.17772],[-122.87385,47.167873],[-122.879465,47.172065],[-122.890777,47.200385],[-122.921946,47.228705],[-122.921946,47.237209],[-122.912017,47.269721],[-122.904937,47.278266],[-122.890777,47.278266],[-122.846913,47.298041],[-122.85261,47.285346],[-122.86677,47.278266]]]]}},{"type":"Feature","properties":{"name":"Canada"},"geometry":{"type":"MultiPolygon","coordinates":[[[[-122.0,48.992515],[-122.753017,48.992515],[-122.759511,49.001166],[-122.781809,49.01732],[-122.823232,49.006985],[-122.853017,49.017035],[-122.876047,49.036526],[-122.8756,49.054755],[-122.865346,49.070054],[-122.867747,49.080471],[-122.881744,49.086493],[-122.906606,49.088324],[-122.951283,49.082953],[-123.032826,49.050605],[-123.048573,49.035224],[-123.044057,49.017279],[-123.032053,48.995185],[-123.035308,48.992499],[-123.090506,48.992515],[-123.100494,49.021186],[-123.108306,49.033677],[-123.138783,49.053778],[-123.142974,49.06094],[-123.129465,49.074652],[-123.075673,49.105658],[-123.05427,49.123236],[-123.040679,49.151028],[-123.081125,49.128363],[-123.123402,49.115871],[-123.167144,49.115627],[-123.211985,49.12995],[-123.211985,49.136705],[-123.200103,49.148505],[-123.204701,49.189846],[-123.198313,49.205634],[-123.179799,49.209866],[-123.156972,49.205308],[-123.137603,49.195705],[-123.143381,49.207465],[-123.235911,49.249986],[-123.246897,49.274644],[-123.218251,49.279202],[-123.175282,49.276597],[-123.143056,49.280097],[-123.161936,49.299994],[-123.154897,49.308539],[-123.138539,49.309027],[-123.129465,49.304918],[-123.123362,49.294379],[-123.108632,49.288764],[-123.090443,49.288642],[-123.074208,49.294379],[-123.067372,49.287543],[-123.056549,49.294257],[-123.039418,49.295885],[-123.020985,49.293402],[-123.0065,49.287543],[-122.960846,49.281887],[-122.921946,49.299547],[-122.892486,49.333686],[-122.86266,49.40644],[-122.855702,49.441799],[-122.859853,49.449856],[-122.869049,49.456366],[-122.878285,49.457343],[-122.882395,49.448635],[-122.879628,49.417182],[-122.882395,49.404242],[-122.93814,49.325832],[-123.02066,49.30683],[-123.211985,49.34276],[-123.228424,49.343451],[-123.270009,49.335354],[-123.283559,49.363349],[-123.293935,49.370103],[-123.283844,49.382554],[-123.256459,49.396552],[-123.245473,49.411078],[-123.240102,49.441555],[-123.252187,49.511786],[-123.251129,49.522854],[-123.240102,49.554999],[-123.21817,49.596015],[-123.224721,49.596991],[-123.225657,49.603461],[-123.215077,49.609931],[-123.206899,49.621568],[-123.204661,49.63581],[-123.211985,49.650051],[-123.169993,49.674994],[-123.153961,49.692939],[-123.16372521356152,49.7],[-122.0,49.7],[-122.0,48.992515]]],[[[-123.17761041252193,49.7],[-123.202789,49.682278],[-123.228424,49.674872],[-123.247426,49.658271],[-123.252919,49.650051],[-123.245473,49.613105],[-123.248606,49.597805],[-123.256418,49.593004],[-123.266591,49.591376],[-123.287262,49.580878],[-123.328033,49.581773],[-123.355336,49.55508],[-123.396596,49.558295],[-123.409739,49.547756],[-123.489491,49.515041],[-123.502675,49.505439],[-123.485707,49.493598],[-123.491322,49.47309],[-123.473215,49.434516],[-123.482289,49.414211],[-123.499867,49.399888],[-123.516184,49.391669],[-123.533559,49.388495],[-123.554596,49.38996],[-123.781117,49.465481],[-123.806711,49.470526],[-123.865224,49.473334],[-123.885569,49.477281],[-123.903432,49.486151],[-123.919545,49.507473],[-123.930776,49.513495],[-123.963775,49.521145],[-123.975453,49.530911],[-123.993153,49.550238],[-124.026967,49.603461],[-124.061106,49.630805],[-124.06607,49.644029],[-124.067983,49.66234],[-124.063832,49.678453],[-124.044301,49.69123],[-124.03976935803526,49.7],[-123.90229733412075,49.7],[-123.869252,49.67178],[-123.835113,49.633938],[-123.82726,49.595201],[-123.828359,49.581773],[-123.805084,49.528632],[-123.794179,49.513495],[-123.777089,49.505316],[-123.767161,49.51317],[-123.752594,49.540758],[-123.771637,49.575426],[-123.772288,49.59394],[-123.760081,49.609687],[-123.718495,49.616523],[-123.693674,49.634833],[-123.63801,49.641099],[-123.589752,49.653632],[-123.550201,49.674872],[-123.53640936873272,49.7],[-123.17761041252193,49.7]]],[[[-123.664459,49.656155],[-123.794545,49.644029],[-123.807851,49.646918],[-123.812082,49.667141],[-123.823232,49.683173],[-123.84130081189318,49.7],[-123.54756310390323,49.7],[-123.664459,49.656155]]],[[[-123.283111,48.611274],[-123.280344,48.601304],[-123.287953,48.591254],[-123.302887,48.596991],[-123.336659,48.63109],[-123.338002,48.634223],[-123.332672,48.629543],[-123.331939,48.634426],[-123.337473,48.648424],[-123.305287,48.618801],[-123.283111,48.611274]]],[[[-123.382314,48.756171],[-123.407582,48.754055],[-123.458404,48.767401],[-123.428538,48.738349],[-123.427642,48.72956],[-123.461008,48.715399],[-123.482086,48.712226],[-123.496246,48.715562],[-123.531117,48.734361],[-123.540924,48.746324],[-123.549713,48.770738],[-123.546783,48.783922],[-123.533518,48.794135],[-123.533518,48.800971],[-123.553375,48.814683],[-123.569814,48.832424],[-123.571523,48.849758],[-123.54719,48.862372],[-123.571929,48.881496],[-123.586659,48.898017],[-123.593739,48.919094],[-123.59557,48.951809],[-123.586497,48.942572],[-123.581899,48.931301],[-123.503082,48.891669],[-123.43106,48.841946],[-123.458811,48.844916],[-123.488637,48.862291],[-123.498769,48.856269],[-123.499989,48.849351],[-123.472035,48.828274],[-123.369008,48.774237],[-123.382314,48.756171]]],[[[-123.65392,49.033677],[-123.697987,49.082099],[-123.702748,49.099921],[-123.697255,49.10932],[-123.687001,49.108547],[-123.658559,49.072699],[-123.570383,48.991767],[-123.546742,48.976223],[-123.471913,48.938137],[-123.39094,48.920152],[-123.365956,48.907131],[-123.334462,48.902981],[-123.321848,48.896552],[-123.314443,48.88231],[-123.317128,48.869818],[-123.327382,48.863959],[-123.342356,48.869818],[-123.369293,48.861884],[-123.394521,48.872382],[-123.437327,48.903998],[-123.530751,48.941962],[-123.632924,49.024359],[-123.65392,49.033677]]],[[[-123.704416,49.155992],[-123.697011,49.147691],[-123.697092,49.137112],[-123.705678,49.13288],[-123.749501,49.128852],[-123.776682,49.133287],[-123.842844,49.151028],[-123.861969,49.16356],[-123.867421,49.174384],[-123.866078,49.179429],[-123.870473,49.185492],[-123.869781,49.190497],[-123.863433,49.196275],[-123.833852,49.201158],[-123.823964,49.198676],[-123.809316,49.184149],[-123.768625,49.169013],[-123.704416,49.155992]]],[[[-125.944976,49.197821],[-125.937327,49.190741],[-125.93814,49.184882],[-125.954091,49.181301],[-125.960276,49.172105],[-125.961985,49.152655],[-125.968902,49.148749],[-126.011708,49.159125],[-126.0183,49.181464],[-126.030181,49.190334],[-126.035024,49.201809],[-126.024322,49.211982],[-126.006459,49.214057],[-125.961334,49.204901],[-125.944976,49.197821]]],[[[-126.083323,49.314887],[-126.06371,49.277574],[-126.048492,49.267035],[-126.069407,49.25552],[-126.089589,49.25434],[-126.135732,49.264716],[-126.158315,49.273586],[-126.192535,49.272284],[-126.223541,49.277086],[-126.240346,49.301825],[-126.227406,49.307807],[-126.234039,49.331732],[-126.240346,49.34276],[-126.231313,49.357327],[-126.231435,49.378607],[-126.226715,49.382514],[-126.206166,49.383734],[-126.150217,49.396226],[-126.131703,49.396796],[-126.108022,49.384101],[-126.086252,49.363105],[-126.075103,49.338528],[-126.083323,49.314887]]],[[[-123.336578,49.364569],[-123.359364,49.342922],[-123.375885,49.337104],[-123.416005,49.337226],[-123.426178,49.340074],[-123.429433,49.346747],[-123.425771,49.367499],[-123.418121,49.380927],[-123.3697,49.411363],[-123.326324,49.420478],[-123.315175,49.413398],[-123.319203,49.399319],[-123.330149,49.384182],[-123.330149,49.381537],[-123.326568,49.381496],[-123.336578,49.364569]]],[[[-124.171742,49.46426],[-124.171702,49.454739],[-124.186187,49.447008],[-124.232411,49.458564],[-124.268463,49.455512],[-124.297027,49.457913],[-124.317942,49.462958],[-124.361073,49.480048],[-124.355702,49.490383],[-124.365224,49.49726],[-124.376536,49.499945],[-124.379058,49.50727],[-124.364898,49.521064],[-124.354604,49.522406],[-124.329172,49.512844],[-124.295888,49.512437],[-124.251332,49.504299],[-124.232167,49.499335],[-124.171742,49.46426]]],[[[-123.449127,49.458686],[-123.456654,49.478217],[-123.444732,49.486151],[-123.444732,49.493598],[-123.452626,49.508124],[-123.439687,49.521308],[-123.418121,49.530911],[-123.372548,49.54206],[-123.362172,49.540758],[-123.35676,49.534898],[-123.342356,49.506659],[-123.322499,49.48607],[-123.323801,49.461859],[-123.342681,49.442939],[-123.375844,49.438381],[-123.367421,49.453843],[-123.374623,49.463528],[-123.389394,49.467434],[-123.403798,49.465725],[-123.43342,49.44599],[-123.451568,49.445217],[-123.449127,49.458686]]],[[[-124.600413,49.527574],[-124.594146,49.521633],[-124.624501,49.523424],[-124.63561,49.517401],[-124.64273,49.504299],[-124.653228,49.495998],[-124.662913,49.49433],[-124.691274,49.509345],[-124.703765,49.521186],[-124.702504,49.537665],[-124.683746,49.549262],[-124.655141,49.547105],[-124.600413,49.527574]]],[[[-124.694163,49.490627],[-124.690826,49.482856],[-124.702016,49.479478],[-124.746409,49.488471],[-124.825429,49.540107],[-124.838531,49.556586],[-124.840159,49.577582],[-124.836049,49.597724],[-124.827219,49.602973],[-124.79247,49.579739],[-124.716461,49.499498],[-124.694163,49.490627]]],[[[-124.136383,49.656562],[-124.163686,49.659817],[-124.187734,49.678941],[-124.20159948813006,49.7],[-124.09814754161515,49.7],[-124.109486,49.677965],[-124.136383,49.656562]]],[[[-124.3444233505632,49.7],[-124.322743,49.670803],[-124.294097,49.649888],[-124.28246,49.627834],[-124.269765,49.615871],[-124.173207,49.554145],[-124.144032,49.529608],[-124.123158,49.499823],[-124.143422,49.489325],[-124.162262,49.495998],[-124.197621,49.520941],[-124.378407,49.602851],[-124.438832,49.611884],[-124.441721,49.617255],[-124.439076,49.630805],[-124.462066,49.653754],[-124.472564,49.67178],[-124.493072,49.67178],[-124.517323,49.685452],[-124.534047,49.689643],[-124.55503097180552,49.7],[-124.3444233505632,49.7]]],[[[-126.63470753509966,49.7],[-126.619211,49.652777],[-126.617665,49.630805],[-126.638824,49.595038],[-126.679433,49.591783],[-126.806752,49.627387],[-126.822133,49.636298],[-126.856109,49.665676],[-126.912506,49.691636],[-126.92410015254886,49.7],[-126.63470753509966,49.7]]],[[[-123.302235,48.484198],[-123.28718,48.468329],[-123.280629,48.448391],[-123.287099,48.42414],[-123.30248,48.414293],[-123.330393,48.404771],[-123.357045,48.40058],[-123.437327,48.444648],[-123.453359,48.43358],[-123.480214,48.39232],[-123.496246,48.383205],[-123.511098,48.38052],[-123.519846,48.355292],[-123.554596,48.327948],[-123.550608,48.313056],[-123.572174,48.306098],[-123.595286,48.310045],[-123.59557,48.327948],[-123.612457,48.32685],[-123.65392,48.314276],[-123.667795,48.317613],[-123.685048,48.33218],[-123.733754,48.350775],[-123.780629,48.36286],[-123.841176,48.361884],[-123.890777,48.366889],[-124.1315,48.433498],[-124.38915,48.517971],[-124.414215,48.519761],[-124.437896,48.525539],[-124.429677,48.53852],[-124.390696,48.560736],[-124.401438,48.565253],[-124.445302,48.568183],[-124.467519,48.555976],[-124.485666,48.540229],[-124.665395,48.573228],[-124.731191,48.596381],[-124.769358,48.615058],[-124.799916,48.639228],[-124.816233,48.647121],[-125.093984,48.730048],[-125.108754,48.738756],[-125.15982,48.786811],[-125.18517,48.800971],[-125.171132,48.815904],[-125.110015,48.841946],[-125.09557,48.863471],[-125.07844,48.876166],[-125.058176,48.88227],[-125.021962,48.886542],[-125.011464,48.891995],[-125.006988,48.900214],[-125.013661,48.928127],[-125.00357,48.94123],[-124.98412,48.956],[-124.918284,48.972235],[-124.88268,48.990546],[-124.846995,49.020453],[-124.819447,49.05801],[-124.80842,49.099189],[-124.800893,49.116767],[-124.786977,49.13349],[-124.779408,49.152045],[-124.798818,49.188788],[-124.80842,49.246568],[-124.820627,49.237982],[-124.828928,49.225491],[-124.822011,49.181383],[-124.822011,49.140123],[-124.828033,49.119859],[-124.869862,49.074652],[-124.879221,49.032294],[-124.88801,49.013983],[-124.967641,48.987942],[-124.992747,48.985907],[-125.04483,48.992743],[-125.085846,48.979071],[-125.111236,48.983873],[-125.146881,48.998521],[-125.171498,48.992743],[-125.201894,48.966742],[-125.221262,48.954779],[-125.240387,48.955471],[-125.265045,48.963039],[-125.315175,48.965318],[-125.336008,48.972235],[-125.30248,49.003119],[-125.282826,49.015367],[-125.260854,49.020697],[-125.260854,49.027533],[-125.308705,49.027533],[-125.333404,49.041815],[-125.342844,49.041164],[-125.353871,49.027248],[-125.366282,48.987372],[-125.400502,48.972602],[-125.429799,48.943996],[-125.448964,48.937445],[-125.460561,48.920722],[-125.469472,48.91767],[-125.489369,48.918647],[-125.531117,48.932522],[-125.573069,48.955797],[-125.606557,48.961859],[-125.620229,48.968817],[-125.637034,48.992743],[-125.672353,49.017808],[-125.698232,49.02912],[-125.735829,49.053046],[-125.836252,49.069037],[-125.862782,49.080756],[-125.871693,49.090155],[-125.871002,49.102607],[-125.861562,49.110012],[-125.830922,49.114407],[-125.815785,49.123033],[-125.784779,49.104926],[-125.767568,49.103461],[-125.746897,49.109442],[-125.701283,49.134711],[-125.69225,49.133368],[-125.683583,49.148424],[-125.64566,49.164008],[-125.637034,49.174628],[-125.632314,49.187934],[-125.612945,49.206366],[-125.610341,49.225491],[-125.698598,49.181098],[-125.723256,49.16059],[-125.746693,49.148139],[-125.755116,49.168891],[-125.753733,49.222357],[-125.742828,49.251776],[-125.740549,49.267401],[-125.777333,49.247707],[-125.791127,49.247016],[-125.802113,49.253404],[-125.801991,49.300198],[-125.798695,49.311469],[-125.781606,49.338446],[-125.775624,49.355414],[-125.77477,49.370103],[-125.781606,49.370103],[-125.806304,49.343451],[-125.817779,49.324042],[-125.829986,49.28384],[-125.843739,49.267035],[-125.851715,49.266425],[-125.864898,49.27619],[-125.877268,49.280097],[-125.901194,49.274482],[-125.939809,49.240912],[-125.956044,49.232896],[-125.977366,49.235175],[-125.994374,49.242336],[-126.028066,49.273871],[-126.008901,49.292304],[-125.978749,49.304023],[-125.950917,49.320258],[-125.928782,49.373033],[-125.910024,49.398383],[-125.898997,49.422187],[-125.911977,49.438381],[-125.921783,49.419827],[-125.958485,49.393297],[-125.966624,49.380072],[-125.969838,49.357856],[-125.979237,49.341783],[-125.994252,49.33039],[-126.014394,49.322333],[-126.059071,49.345893],[-126.076487,49.383734],[-126.071645,49.396308],[-126.058176,49.411933],[-126.055084,49.445299],[-126.121938,49.426215],[-126.17398,49.415351],[-126.180165,49.406724],[-126.185699,49.404242],[-126.213531,49.407375],[-126.227122,49.412787],[-126.2329,49.421047],[-126.235748,49.435492],[-126.24352,49.446275],[-126.254791,49.450507],[-126.268219,49.445217],[-126.258778,49.431464],[-126.256703,49.41592],[-126.261301,49.400336],[-126.284291,49.366523],[-126.288075,49.362698],[-126.297353,49.362535],[-126.309234,49.376288],[-126.337717,49.386054],[-126.360707,49.400539],[-126.39509,49.414008],[-126.405019,49.421373],[-126.391184,49.430894],[-126.405751,49.442084],[-126.421376,49.465562],[-126.432118,49.472561],[-126.448354,49.470526],[-126.465321,49.46015],[-126.487375,49.438381],[-126.463938,49.405585],[-126.464345,49.395657],[-126.487375,49.383734],[-126.510406,49.377753],[-126.527821,49.378852],[-126.542307,49.385688],[-126.572662,49.414293],[-126.57429,49.425686],[-126.562408,49.458889],[-126.562408,49.486151],[-126.557851,49.503241],[-126.557607,49.510403],[-126.562408,49.520941],[-126.556264,49.520941],[-126.556264,49.527167],[-126.567698,49.535793],[-126.576772,49.548245],[-126.570953,49.554145],[-126.569325,49.575588],[-126.562571,49.587388],[-126.548818,49.596015],[-126.499094,49.610582],[-126.452545,49.636298],[-126.417063,49.638495],[-126.336537,49.630805],[-126.21817,49.645697],[-126.185699,49.657457],[-126.171986,49.657416],[-126.137929,49.650051],[-126.089508,49.660875],[-126.09203,49.669989],[-126.098541,49.677802],[-126.117096,49.685452],[-126.194976,49.681383],[-126.296783,49.660834],[-126.324371,49.648261],[-126.338775,49.649644],[-126.453236,49.674302],[-126.477162,49.683987],[-126.487375,49.695054],[-126.48502222039964,49.7],[-124.87072271342228,49.7],[-124.875844,49.677436],[-124.890981,49.672065],[-124.973256,49.684963],[-124.979726,49.681708],[-124.976226,49.668036],[-124.948638,49.653754],[-124.909495,49.621324],[-124.838043,49.517279],[-124.80842,49.506659],[-124.794749,49.472561],[-124.772572,49.461493],[-124.723622,49.465074],[-124.691965,49.449205],[-124.668121,49.443061],[-124.657582,49.438381],[-124.637074,49.411078],[-124.596018,49.391181],[-124.545074,49.377183],[-124.445302,49.362698],[-124.387278,49.360663],[-124.359975,49.356635],[-124.319569,49.334906],[-124.208485,49.308051],[-124.174672,49.314887],[-124.159169,49.310452],[-124.109486,49.280097],[-124.12678,49.274319],[-124.163075,49.271674],[-124.178375,49.26024],[-124.164866,49.254869],[-124.122874,49.26024],[-124.07136,49.246568],[-124.009389,49.245917],[-123.977691,49.240953],[-123.954945,49.229193],[-123.94579,49.215237],[-123.946278,49.208441],[-123.964182,49.20307],[-123.951243,49.184516],[-123.930776,49.143541],[-123.917104,49.134914],[-123.883616,49.136705],[-123.841664,49.127631],[-123.828359,49.12995],[-123.813385,49.118598],[-123.787343,49.069037],[-123.756907,49.042141],[-123.751373,49.027981],[-123.773752,49.020697],[-123.760894,48.995836],[-123.764882,48.987535],[-123.779897,48.985907],[-123.793853,48.993476],[-123.804107,49.005357],[-123.816029,49.012681],[-123.835113,49.006415],[-123.835113,49.00019],[-123.787343,48.965399],[-123.739735,48.942857],[-123.717926,48.921536],[-123.593821,48.836982],[-123.579945,48.821601],[-123.596099,48.811428],[-123.602284,48.797309],[-123.598704,48.794135],[-123.575063,48.798245],[-123.568267,48.794135],[-123.565297,48.780911],[-123.566558,48.760728],[-123.572987,48.746243],[-123.585032,48.749701],[-123.598785,48.75845],[-123.617584,48.763251],[-123.636586,48.763861],[-123.650787,48.759955],[-123.650787,48.753119],[-123.631581,48.742133],[-123.560862,48.712144],[-123.526682,48.678046],[-123.529937,48.66474],[-123.542348,48.650295],[-123.540924,48.636461],[-123.516957,48.610826],[-123.513661,48.595445],[-123.517568,48.58039],[-123.53482,48.565375],[-123.540924,48.554511],[-123.535471,48.540107],[-123.51358,48.547553],[-123.472035,48.575019],[-123.478505,48.590806],[-123.475006,48.621243],[-123.478871,48.636461],[-123.437327,48.650092],[-123.461781,48.663235],[-123.471791,48.672431],[-123.472035,48.684882],[-123.463002,48.689643],[-123.446034,48.692084],[-123.416819,48.691107],[-123.399241,48.681545],[-123.388661,48.634833],[-123.393219,48.629625],[-123.355336,48.560736],[-123.345774,48.523383],[-123.337066,48.508043],[-123.302235,48.484198]]],[[[-123.287221,48.812812],[-123.25182,48.790188],[-123.249013,48.777411],[-123.250396,48.766099],[-123.240468,48.761868],[-123.219228,48.761868],[-123.1881,48.756171],[-123.182444,48.743476],[-123.186676,48.736396],[-123.199452,48.732123],[-123.257476,48.739203],[-123.306996,48.764635],[-123.311269,48.771715],[-123.311269,48.797268],[-123.322621,48.805732],[-123.322621,48.812812],[-123.312652,48.817084],[-123.298573,48.815619],[-123.287221,48.812812]]],[[[-123.101715,48.761868],[-123.120188,48.764635],[-123.158355,48.763251],[-123.203684,48.784491],[-123.203684,48.808539],[-123.207916,48.815619],[-123.222076,48.822699],[-123.2235,48.832668],[-123.203684,48.829779],[-123.179596,48.815619],[-123.141428,48.801459],[-123.053619,48.795844],[-123.043772,48.788764],[-123.042307,48.784491],[-123.070627,48.778795],[-123.101715,48.761868]]],[[[-125.830723,49.237096],[-125.797002,49.227035],[-125.786019,49.209254],[-125.801352,49.143888],[-125.841727,49.13378],[-125.879898,49.146046],[-125.88023,49.161054],[-125.887558,49.173101],[-125.914986,49.176295],[-125.923406,49.196981],[-125.914895,49.21329],[-125.90107,49.22552],[-125.861625,49.237385],[-125.830723,49.237096]]]]}}]}},"alaska":{"bounds":[-153.2,58.8,-145.8,61.1],"land":{"type":"FeatureCollection","features":[{"type":"Feature","properties":{"name":"United States of America"},"geometry":{"type":"MultiPolygon","coordinates":[[[[-145.8,60.45511809933048],[-145.866064,60.447662],[-145.938754,60.456066],[-145.941558,60.471137],[-145.922678,60.479967],[-145.880035,60.487698],[-145.846832,60.507229],[-145.8,60.52919727934375],[-145.8,60.45511809933048]]],[[[-145.844594,60.621039],[-145.880198,60.62873],[-145.838002,60.639838],[-145.817738,60.649604],[-145.805043,60.662909],[-145.824208,60.664862],[-145.861399,60.65648],[-145.880198,60.662909],[-145.85554,60.676581],[-145.845286,60.685533],[-145.839182,60.697699],[-145.857167,60.695054],[-145.882232,60.686225],[-145.904652,60.67357],[-145.925771,60.645209],[-145.952382,60.638129],[-146.003651,60.635647],[-145.99413,60.649156],[-145.95523,60.669745],[-145.914296,60.703925],[-145.938791,60.708197],[-145.99234,60.683743],[-146.017323,60.676581],[-146.044301,60.673082],[-146.197743,60.636542],[-146.238759,60.634711],[-146.256907,60.646186],[-146.263173,60.653713],[-146.264312,60.659817],[-146.261301,60.662584],[-146.246002,60.663804],[-146.230702,60.673163],[-146.117299,60.721381],[-146.081288,60.726386],[-146.070302,60.730658],[-146.062123,60.738023],[-146.058909,60.748603],[-146.05309,60.752631],[-146.026112,60.744818],[-146.017934,60.752346],[-146.03775,60.779608],[-146.031117,60.794745],[-146.043446,60.801011],[-146.056386,60.799302],[-146.069325,60.778388],[-146.093495,60.762885],[-146.140859,60.744818],[-146.166982,60.740709],[-146.1822,60.744045],[-146.181874,60.753119],[-146.161285,60.766547],[-146.208567,60.760728],[-146.222483,60.755764],[-146.249827,60.728664],[-146.264027,60.725002],[-146.295562,60.726304],[-146.306793,60.732082],[-146.312123,60.744818],[-146.309967,60.758246],[-146.28425,60.779608],[-146.3131,60.771674],[-146.352528,60.73371],[-146.38915,60.721991],[-146.438385,60.69599],[-146.482289,60.686957],[-146.493723,60.687161],[-146.517568,60.698065],[-146.549916,60.701402],[-146.644195,60.697699],[-146.652089,60.700019],[-146.654775,60.718166],[-146.695709,60.744818],[-146.678578,60.752753],[-146.660512,60.749986],[-146.627431,60.731147],[-146.615793,60.761176],[-146.607004,60.766547],[-146.591135,60.765204],[-146.562611,60.750963],[-146.534535,60.759223],[-146.506703,60.744371],[-146.493723,60.748603],[-146.491526,60.760891],[-146.505116,60.768622],[-146.538075,60.772773],[-146.515696,60.780097],[-146.445627,60.772773],[-146.426625,60.774888],[-146.386098,60.784329],[-146.343332,60.788886],[-146.262847,60.810858],[-146.195465,60.820543],[-146.195465,60.827379],[-146.227895,60.831692],[-146.237538,60.84101],[-146.226145,60.850409],[-146.195465,60.854682],[-146.093088,60.84101],[-146.223459,60.892646],[-146.253774,60.885728],[-146.281361,60.85932],[-146.31725,60.836737],[-146.358306,60.822333],[-146.401519,60.820543],[-146.401519,60.827379],[-146.393137,60.835435],[-146.387278,60.847886],[-146.511464,60.81859],[-146.558583,60.827379],[-146.554596,60.845445],[-146.566803,60.853664],[-146.586049,60.852973],[-146.628285,60.827297],[-146.630971,60.834784],[-146.627431,60.854682],[-146.607004,60.868354],[-146.611399,60.877143],[-146.620839,60.883775],[-146.641103,60.889472],[-146.668446,60.880927],[-146.683502,60.879828],[-146.703196,60.889472],[-146.716868,60.90998],[-146.735422,60.923896],[-146.737294,60.933824],[-146.753285,60.955024],[-146.753163,60.964301],[-146.729848,60.964545],[-146.691274,60.947252],[-146.60497,60.937161],[-146.585846,60.944729],[-146.618804,60.955024],[-146.666086,60.963446],[-146.699818,60.976874],[-146.692291,61.002427],[-146.67276,61.032701],[-146.662221,61.040269],[-146.643544,61.04206],[-146.590932,61.032904],[-146.572825,61.026597],[-146.570465,61.030707],[-146.565419,61.046536],[-146.632924,61.059556],[-146.647939,61.073798],[-146.556874,61.085924],[-146.283762,61.081448],[-146.23644,61.094306],[-146.24475697967793,61.1],[-145.8,61.1],[-145.8,60.631439656472466],[-145.844594,60.621039]]],[[[-146.675282,61.08808],[-146.72057,61.064887],[-146.815541,61.031806],[-146.853993,61.005561],[-146.871327,60.985175],[-146.89094,60.972073],[-146.94872,60.949652],[-146.976715,60.945787],[-147.004872,60.947943],[-147.031565,60.957709],[-146.993967,60.983385],[-146.978831,60.998725],[-146.983754,61.005561],[-147.011057,61.005561],[-147.015696,61.002183],[-147.018463,60.991889],[-147.034169,60.981635],[-147.044301,60.977932],[-147.058827,60.978217],[-147.042592,61.002916],[-147.047231,61.009833],[-147.100657,61.015286],[-147.119456,61.002875],[-147.148264,60.991889],[-147.150543,60.976386],[-147.145375,60.963324],[-147.145863,60.954291],[-147.165273,60.950873],[-147.185292,60.953681],[-147.199127,60.961982],[-147.207102,60.975979],[-147.209625,60.995592],[-147.205149,61.014594],[-147.264272,60.991889],[-147.278432,61.004381],[-147.287913,61.007025],[-147.292226,60.995592],[-147.287506,60.984931],[-147.265289,60.967922],[-147.258127,60.957709],[-147.257314,60.937893],[-147.26891,60.930243],[-147.312734,60.930406],[-147.305816,60.923],[-147.343088,60.899482],[-147.364613,60.891262],[-147.374135,60.899075],[-147.382965,60.913967],[-147.403961,60.912787],[-147.449859,60.902533],[-147.437896,60.926907],[-147.380971,60.985663],[-147.400258,60.990953],[-147.432607,60.965318],[-147.449574,60.957709],[-147.460032,60.965766],[-147.451731,60.98371],[-147.422597,61.012356],[-147.451731,61.010932],[-147.468861,61.000474],[-147.494252,60.967963],[-147.509755,60.925727],[-147.522694,60.907538],[-147.542063,60.913316],[-147.545481,60.985663],[-147.525502,61.030585],[-147.53246,61.053941],[-147.483998,61.073798],[-147.485911,61.083726],[-147.511342,61.094306],[-147.5153328234141,61.1],[-146.65851303657357,61.1],[-146.675282,61.08808]]],[[[-147.566151,61.087226],[-147.581858,61.059231],[-147.601796,61.0362],[-147.62092,61.026597],[-147.658599,61.019477],[-147.665273,61.014594],[-147.648508,61.012356],[-147.620758,61.013983],[-147.614369,61.012356],[-147.607411,61.003363],[-147.634185,60.974799],[-147.630483,60.966702],[-147.603831,60.961168],[-147.600087,60.949856],[-147.605621,60.923651],[-147.596791,60.885688],[-147.599029,60.869086],[-147.610666,60.861558],[-147.664662,60.858303],[-147.681956,60.864691],[-147.666086,60.900458],[-147.730458,60.889472],[-147.732777,60.900092],[-147.727203,60.918158],[-147.716461,60.935696],[-147.703114,60.944729],[-147.703114,60.950873],[-147.727651,60.947577],[-147.769439,60.929145],[-147.785715,60.930406],[-147.79247,60.916815],[-147.770131,60.911444],[-147.77774,60.898871],[-147.812978,60.8758],[-147.771392,60.864936],[-147.751373,60.845038],[-147.754628,60.84101],[-147.795562,60.827379],[-147.870188,60.837714],[-147.886098,60.845201],[-147.898793,60.855943],[-147.908559,60.868354],[-147.922231,60.895697],[-147.9381,60.908759],[-148.019846,60.941636],[-148.03893,60.944729],[-148.050404,60.950141],[-148.034291,60.962348],[-147.997914,60.98192],[-148.002634,60.992865],[-147.997914,60.999335],[-147.98884,61.004869],[-147.96642,61.007961],[-147.956939,61.012356],[-147.944692,61.026597],[-147.929067,61.053778],[-147.915395,61.067572],[-147.935902,61.073798],[-147.9103246652304,61.1],[-147.5627871904645,61.1],[-147.566151,61.087226]]],[[[-147.998525,61.06269],[-148.020985,61.037421],[-148.049428,61.026597],[-148.072011,61.0244],[-148.086252,61.031399],[-148.093821,61.044176],[-148.113352,61.061835],[-148.131907,61.088324],[-148.148752,61.094306],[-148.14605476134525,61.1],[-147.97361199704085,61.1],[-147.998525,61.06269]]],[[[-148.258616,61.094306],[-148.305165,61.077094],[-148.390574,61.067288],[-148.409495,61.060126],[-148.397165,61.055365],[-148.372629,61.052232],[-148.361073,61.046536],[-148.407908,61.010932],[-148.449818,60.999335],[-148.449818,60.991889],[-148.410349,60.986396],[-148.3756,60.999213],[-148.313832,61.040269],[-148.27949,61.054999],[-148.227651,61.07099],[-148.177724,61.076606],[-148.148752,61.060126],[-148.163808,61.055813],[-148.166819,61.034613],[-148.172353,61.023261],[-148.207143,60.98192],[-148.218373,60.97248],[-148.251943,60.954739],[-148.264841,60.950873],[-148.281728,60.953681],[-148.313588,60.969794],[-148.333119,60.971381],[-148.325876,60.961127],[-148.289052,60.933824],[-148.281199,60.9206],[-148.306467,60.895697],[-148.3072,60.852729],[-148.320424,60.847886],[-148.395823,60.861558],[-148.348215,60.83393],[-148.332875,60.819403],[-148.354237,60.813137],[-148.383372,60.817043],[-148.428334,60.835273],[-148.457265,60.84101],[-148.523427,60.840399],[-148.586374,60.830471],[-148.703684,60.79267],[-148.670115,60.785468],[-148.635081,60.793606],[-148.600046,60.806342],[-148.566477,60.813137],[-148.546335,60.800116],[-148.476308,60.814276],[-148.460154,60.812405],[-148.449818,60.800116],[-148.488026,60.790513],[-148.578359,60.781724],[-148.650868,60.737372],[-148.662709,60.725002],[-148.677724,60.700344],[-148.68871,60.689399],[-148.703684,60.684027],[-148.703684,60.676581],[-148.66747,60.674506],[-148.655873,60.676581],[-148.621327,60.695136],[-148.598256,60.699612],[-148.583201,60.712348],[-148.578928,60.735785],[-148.573598,60.739936],[-148.552846,60.744818],[-148.510203,60.763495],[-148.453074,60.768622],[-148.433054,60.779608],[-148.374705,60.779608],[-148.374705,60.772773],[-148.388376,60.772773],[-148.388376,60.766547],[-148.370961,60.759752],[-148.361073,60.744818],[-148.385487,60.739691],[-148.39509,60.734687],[-148.401967,60.725002],[-148.39509,60.689521],[-148.398915,60.684027],[-148.42634,60.679511],[-148.434519,60.667426],[-148.429921,60.62873],[-148.395823,60.656684],[-148.358754,60.667426],[-148.347401,60.676581],[-148.342519,60.703315],[-148.30842,60.734565],[-148.264638,60.76081],[-148.230702,60.772773],[-148.230702,60.766547],[-148.24828,60.754381],[-148.256215,60.737982],[-148.254954,60.718573],[-148.244985,60.697699],[-148.210194,60.662909],[-148.204172,60.637519],[-148.196604,60.62873],[-148.219187,60.614081],[-148.248118,60.608303],[-148.315256,60.549709],[-148.336985,60.540595],[-148.361073,60.54682],[-148.363515,60.562323],[-148.416453,60.559231],[-148.429921,60.570746],[-148.439687,60.587063],[-148.462473,60.589301],[-148.488474,60.582221],[-148.524485,60.560004],[-148.599477,60.52969],[-148.655873,60.49844],[-148.684763,60.472113],[-148.68989,60.457221],[-148.672597,60.450629],[-148.651479,60.45718],[-148.615305,60.485745],[-148.557932,60.50434],[-148.51415,60.528469],[-148.470204,60.54621],[-148.429921,60.539374],[-148.427073,60.528876],[-148.367869,60.518948],[-148.38154,60.505845],[-148.3485,60.509467],[-148.341542,60.506659],[-148.358835,60.483791],[-148.348378,60.480658],[-148.276601,60.49494],[-148.263783,60.451077],[-148.237538,60.457465],[-148.224721,60.469143],[-148.223622,60.478339],[-148.230702,60.502143],[-148.238352,60.515204],[-148.23412,60.522366],[-148.213246,60.532416],[-148.205922,60.546332],[-148.195912,60.554511],[-148.18456,60.557807],[-148.176096,60.553046],[-148.173655,60.539984],[-148.177113,60.525336],[-148.189768,60.505845],[-148.166371,60.501614],[-148.154612,60.525133],[-148.141306,60.58039],[-148.093821,60.603583],[-148.083608,60.604885],[-148.060007,60.57803],[-148.045766,60.574164],[-148.066843,60.539374],[-148.025258,60.553046],[-148.01179,60.547797],[-147.997914,60.525784],[-147.970774,60.518948],[-147.959828,60.512763],[-147.956939,60.49844],[-147.96227,60.491889],[-147.997914,60.477973],[-147.984731,60.462226],[-147.944407,60.468899],[-147.935902,60.461168],[-147.941884,60.443061],[-147.957021,60.436103],[-147.997914,60.436957],[-147.995351,60.421536],[-148.0124,60.410712],[-148.036855,60.404283],[-148.056264,60.402167],[-148.085561,60.419094],[-148.097035,60.419379],[-148.087351,60.395982],[-148.110911,60.399482],[-148.156443,60.414944],[-148.182322,60.41649],[-148.135081,60.37934],[-148.128285,60.368109],[-148.142445,60.355211],[-148.169789,60.352851],[-148.198557,60.356391],[-148.21703,60.361274],[-148.216176,60.379706],[-148.23351,60.384752],[-148.254587,60.378974],[-148.264841,60.364691],[-148.259755,60.348538],[-148.231679,60.353095],[-148.21703,60.347602],[-148.215159,60.321926],[-148.240915,60.297675],[-148.276235,60.279608],[-148.310374,60.270413],[-148.320058,60.260972],[-148.330027,60.258857],[-148.338735,60.262437],[-148.361073,60.2862],[-148.379709,60.287421],[-148.390859,60.277411],[-148.393056,60.26496],[-148.384958,60.258857],[-148.367543,60.253892],[-148.364451,60.242255],[-148.370798,60.228461],[-148.38154,60.217231],[-148.430898,60.197659],[-148.442983,60.183743],[-148.408681,60.186103],[-148.375234,60.192776],[-148.343373,60.203315],[-148.313832,60.217231],[-148.258127,60.251776],[-148.225819,60.260403],[-148.189768,60.25141],[-148.189768,60.245185],[-148.229075,60.242255],[-148.264841,60.232164],[-148.247182,60.226386],[-148.204091,60.22016],[-148.189768,60.211086],[-148.185618,60.196519],[-148.210194,60.155829],[-148.187611,60.165513],[-148.160146,60.21308],[-148.141306,60.232164],[-148.118845,60.234524],[-148.105946,60.230862],[-148.100331,60.220933],[-148.102528,60.209133],[-148.108347,60.201117],[-148.164906,60.149075],[-148.188832,60.134752],[-148.216746,60.129096],[-148.278635,60.127265],[-148.298573,60.136461],[-148.285959,60.162665],[-148.303049,60.164008],[-148.322987,60.172593],[-148.333119,60.170111],[-148.367869,60.118232],[-148.373036,60.086737],[-148.387929,60.058498],[-148.41161,60.03856],[-148.442983,60.032294],[-148.442983,60.025458],[-148.401967,60.01553],[-148.407582,59.999579],[-148.401967,59.99136],[-148.435374,59.959296],[-148.451365,59.955024],[-148.470937,59.970893],[-148.499013,60.013251],[-148.518056,60.02851],[-148.54601,60.032294],[-148.534413,60.013129],[-148.535512,59.997016],[-148.546986,59.984849],[-148.566477,59.977688],[-148.547841,59.969631],[-148.561757,59.957099],[-148.645579,59.923163],[-148.655873,59.923041],[-148.665761,59.931138],[-148.66454,59.939765],[-148.649648,59.950995],[-148.665232,59.955797],[-148.71052,59.950995],[-148.758901,59.964057],[-148.787831,59.958564],[-148.844187,59.937201],[-148.874989,59.937323],[-148.892323,59.94599],[-148.926015,59.971503],[-148.950673,59.977688],[-149.002024,59.967271],[-149.023183,59.967678],[-149.018992,59.984524],[-149.074778,59.969468],[-149.106882,59.96898],[-149.121409,59.99136],[-149.109486,60.002753],[-149.054392,60.037746],[-149.038808,60.052802],[-149.070139,60.06094],[-149.103098,60.058092],[-149.134755,60.047512],[-149.200185,60.008368],[-149.20519,59.998236],[-149.208852,59.977973],[-149.2176,59.970893],[-149.218617,59.955308],[-149.244496,59.926093],[-149.231272,59.915595],[-149.240834,59.902737],[-149.257883,59.888251],[-149.275258,59.877265],[-149.285878,59.874661],[-149.29308,59.887641],[-149.290598,59.924994],[-149.299672,59.94717],[-149.299509,59.97427],[-149.326039,59.98432],[-149.327463,59.997504],[-149.298329,60.006537],[-149.293324,60.011786],[-149.30016,60.023139],[-149.315175,60.025051],[-149.341135,60.022406],[-149.354115,60.090969],[-149.362864,60.111274],[-149.383656,60.122382],[-149.408681,60.123725],[-149.42988,60.114814],[-149.442006,60.083401],[-149.444407,60.062893],[-149.440745,60.049709],[-149.423044,60.022406],[-149.388905,59.997504],[-149.418284,59.991278],[-149.432485,59.986151],[-149.444163,59.977688],[-149.448801,59.968085],[-149.452626,59.945054],[-149.457834,59.937323],[-149.472157,59.931586],[-149.512441,59.937323],[-149.526967,59.932115],[-149.563669,59.90941],[-149.576853,59.89761],[-149.60615,59.845526],[-149.625071,59.833686],[-149.627878,59.828315],[-149.608469,59.804877],[-149.580678,59.786526],[-149.539744,59.786526],[-149.546498,59.774726],[-149.548329,59.758979],[-149.54658,59.751776],[-149.5301,59.738267],[-149.522654,59.727973],[-149.526723,59.717597],[-149.537546,59.716498],[-149.573232,59.738105],[-149.588083,59.742255],[-149.635935,59.74494],[-149.59496,59.772203],[-149.601877,59.782701],[-149.649607,59.786526],[-149.644968,59.801947],[-149.671986,59.817084],[-149.642161,59.885484],[-149.650095,59.912258],[-149.670277,59.939846],[-149.69697,59.959784],[-149.724721,59.964057],[-149.740834,59.948472],[-149.738596,59.890855],[-149.748891,59.864691],[-149.76594,59.839667],[-149.776967,59.835354],[-149.799794,59.841132],[-149.829945,59.856676],[-149.846995,59.858344],[-149.868113,59.847968],[-149.841135,59.835191],[-149.792551,59.79975],[-149.769114,59.786526],[-149.750356,59.704657],[-149.752634,59.682847],[-149.746083,59.667182],[-149.75654,59.662055],[-149.774363,59.664862],[-149.789866,59.673245],[-149.813954,59.69302],[-149.806223,59.71011],[-149.80724,59.717597],[-149.821482,59.725491],[-149.857045,59.733588],[-149.871816,59.741523],[-149.919911,59.779039],[-149.963002,59.783352],[-150.018666,59.798529],[-150.031687,59.799262],[-150.038564,59.792548],[-150.040639,59.775621],[-149.977976,59.751776],[-149.960886,59.727484],[-149.951975,59.72309],[-149.916493,59.717597],[-149.957468,59.669827],[-150.002675,59.642035],[-150.012685,59.628241],[-150.031199,59.637112],[-150.060496,59.676663],[-150.097727,59.695543],[-150.119252,59.700344],[-150.128774,59.693427],[-150.120676,59.680976],[-150.093129,59.662055],[-150.106923,59.629828],[-150.107126,59.614936],[-150.100209,59.602729],[-150.087839,59.594672],[-150.1103,59.580024],[-150.13561,59.572984],[-150.150217,59.576321],[-150.16747,59.591376],[-150.177195,59.594672],[-150.198354,59.586982],[-150.199452,59.568834],[-150.189402,59.548082],[-150.177195,59.53205],[-150.236887,59.53384],[-150.256785,59.526109],[-150.245473,59.49787],[-150.279734,59.496405],[-150.326243,59.475979],[-150.347971,59.469957],[-150.369862,59.469468],[-150.389475,59.477444],[-150.361521,59.484809],[-150.383249,59.49787],[-150.343332,59.508857],[-150.334828,59.518378],[-150.349924,59.518744],[-150.357493,59.525702],[-150.358876,59.535875],[-150.355336,59.546291],[-150.344797,59.555569],[-150.303456,59.569892],[-150.294667,59.582343],[-150.295847,59.60106],[-150.290476,59.611151],[-150.27009,59.626899],[-150.266347,59.635932],[-150.273386,59.649359],[-150.250722,59.667711],[-150.229075,59.695502],[-150.224355,59.715399],[-150.252268,59.71015],[-150.278798,59.692084],[-150.35436,59.602281],[-150.393178,59.576728],[-150.424265,59.53205],[-150.465199,59.494452],[-150.469309,59.478176],[-150.479482,59.467353],[-150.492747,59.465766],[-150.506174,59.477444],[-150.501576,59.494289],[-150.541941,59.515286],[-150.553334,59.535712],[-150.545115,59.550442],[-150.505849,59.581855],[-150.492502,59.600898],[-150.5301,59.601874],[-150.616689,59.564399],[-150.656972,59.552476],[-150.656972,59.546291],[-150.637441,59.541205],[-150.614329,59.528754],[-150.593577,59.513007],[-150.581248,59.49787],[-150.580515,59.48192],[-150.593577,59.474107],[-150.636464,59.463121],[-150.636464,59.456977],[-150.604726,59.445014],[-150.609324,59.438666],[-150.629709,59.429633],[-150.653066,59.423896],[-150.728627,59.422187],[-150.754628,59.382392],[-150.769968,59.374945],[-150.788279,59.371487],[-150.863881,59.335517],[-150.917673,59.326565],[-150.917307,59.317084],[-150.908762,59.302639],[-150.886342,59.275051],[-150.891957,59.257514],[-150.931101,59.248236],[-150.965891,59.234442],[-150.958608,59.203681],[-150.996571,59.226549],[-151.011545,59.241645],[-151.009511,59.255194],[-150.996409,59.268134],[-150.998036,59.27265],[-151.02009,59.278754],[-151.042551,59.297187],[-151.054189,59.299262],[-151.092478,59.285102],[-151.121693,59.293931],[-151.176625,59.301011],[-151.243479,59.318427],[-151.273305,59.312934],[-151.257639,59.298407],[-151.213124,59.296942],[-151.194529,59.289374],[-151.180979,59.279364],[-151.099355,59.248969],[-151.095164,59.241278],[-151.097239,59.232611],[-151.110341,59.21894],[-151.16161,59.207709],[-151.182607,59.217434],[-151.211863,59.223293],[-151.274607,59.221625],[-151.294423,59.224189],[-151.349192,59.242092],[-151.372914,59.246527],[-151.39684,59.258287],[-151.409617,59.260077],[-151.501291,59.234687],[-151.519765,59.224189],[-151.472605,59.216702],[-151.489084,59.199652],[-151.516713,59.196763],[-151.575307,59.203681],[-151.601267,59.201728],[-151.613962,59.197496],[-151.615956,59.189399],[-151.603831,59.182034],[-151.576283,59.188218],[-151.568105,59.175767],[-151.68281,59.163031],[-151.741526,59.167141],[-151.766794,59.193101],[-151.758616,59.219713],[-151.763376,59.224189],[-151.840281,59.213446],[-151.867909,59.21369],[-151.893137,59.220649],[-151.910756,59.23786],[-151.894846,59.238105],[-151.886667,59.241604],[-151.887156,59.248358],[-151.897084,59.258287],[-151.944936,59.265082],[-151.961781,59.270657],[-151.977162,59.279364],[-151.986684,59.292792],[-151.985829,59.312934],[-151.97643,59.325426],[-151.959462,59.337348],[-151.925038,59.353909],[-151.896596,59.359565],[-151.815175,59.353909],[-151.835398,59.36758],[-151.881296,59.385321],[-151.900217,59.398871],[-151.894032,59.412828],[-151.864207,59.426907],[-151.807729,59.443834],[-151.74828,59.445624],[-151.718251,59.450873],[-151.705312,59.466864],[-151.689076,59.480292],[-151.651845,59.485907],[-151.46821,59.478095],[-151.400624,59.445136],[-151.382192,59.44477],[-151.376332,59.456977],[-151.390004,59.473782],[-151.440419,59.493638],[-151.451487,59.508124],[-151.441477,59.532213],[-151.41747,59.546291],[-151.362742,59.559963],[-151.341257,59.561184],[-151.291697,59.556098],[-151.273305,59.559963],[-151.266306,59.571194],[-151.265207,59.584662],[-151.25886,59.596137],[-151.236073,59.600898],[-151.194773,59.597602],[-151.174143,59.600084],[-151.174021,59.611151],[-151.200266,59.631781],[-151.201365,59.641181],[-151.18456,59.655504],[-151.129954,59.676663],[-151.098948,59.720689],[-151.075144,59.737698],[-150.992787,59.779039],[-151.023508,59.795559],[-151.066274,59.79678],[-151.10912,59.786526],[-151.15449,59.759955],[-151.212514,59.74494],[-151.381337,59.674954],[-151.430979,59.666205],[-151.465769,59.646308],[-151.472605,59.635688],[-151.46467,59.625922],[-151.410512,59.607733],[-151.780832,59.692206],[-151.83137,59.716213],[-151.871775,59.749457],[-151.882883,59.786526],[-151.877065,59.79678],[-151.848704,59.820014],[-151.83141,59.855455],[-151.739125,59.988227],[-151.724965,60.024888],[-151.706044,60.041693],[-151.465443,60.18769],[-151.429636,60.216376],[-151.403269,60.252427],[-151.390614,60.299791],[-151.393178,60.344428],[-151.390248,60.359442],[-151.376047,60.371812],[-151.362009,60.377753],[-151.317983,60.382392],[-151.305979,60.386949],[-151.301869,60.398017],[-151.300649,60.423326],[-151.282948,60.48786],[-151.280751,60.508979],[-151.282786,60.537055],[-151.289499,60.550767],[-151.321767,60.574164],[-151.333852,60.59219],[-151.35497,60.639635],[-151.377797,60.658271],[-151.411733,60.702094],[-151.417307,60.718166],[-151.396921,60.738023],[-151.323801,60.739081],[-151.297556,60.748603],[-151.276072,60.767279],[-151.253,60.775336],[-151.071482,60.785346],[-151.043691,60.796332],[-151.026072,60.810045],[-150.763254,60.926703],[-150.603261,60.978502],[-150.452504,61.034247],[-150.387034,61.047268],[-150.334828,61.032864],[-150.293894,60.967271],[-150.258494,60.954576],[-150.236521,60.940416],[-150.22529,60.937242],[-150.043772,60.916815],[-149.977854,60.938788],[-149.930776,60.944729],[-149.850168,60.973863],[-149.824045,60.978217],[-149.752919,60.973822],[-149.683095,60.957709],[-149.638661,60.939643],[-149.621693,60.937242],[-149.526112,60.937242],[-149.507069,60.934027],[-149.467275,60.919908],[-149.126088,60.883612],[-149.103586,60.878079],[-149.059031,60.85635],[-149.039622,60.852444],[-149.025828,60.854682],[-149.060862,60.897284],[-149.111643,60.928616],[-149.169301,60.946967],[-149.225046,60.950873],[-149.334055,60.930325],[-149.3579,60.933824],[-149.378041,60.946967],[-149.483713,60.982408],[-149.516347,60.988593],[-149.617991,60.994615],[-149.783152,61.045356],[-149.829172,61.073432],[-149.9237157085381,61.1],[-148.2144408510427,61.1],[-148.258616,61.094306]]],[[[-151.122501047271,61.1],[-151.154775,61.064439],[-151.177113,61.053941],[-151.243642,61.039252],[-151.310862,61.032864],[-151.362375,61.012356],[-151.437815,61.019843],[-151.476145,61.017035],[-151.52245,61.008612],[-151.566762,60.994534],[-151.612782,60.965277],[-151.64623,60.950995],[-151.681223,60.928656],[-151.725046,60.924465],[-151.746938,60.916815],[-151.752146,60.898139],[-151.795277,60.868964],[-151.807729,60.847886],[-151.806264,60.83747],[-151.801015,60.828315],[-151.717763,60.743069],[-151.711374,60.725735],[-151.746287,60.718166],[-151.779734,60.724066],[-151.840688,60.751125],[-151.869822,60.759101],[-151.862375,60.738674],[-151.931508,60.725287],[-151.964304,60.703437],[-152.013051,60.680732],[-152.051381,60.673163],[-152.101308,60.613837],[-152.109364,60.608303],[-152.143137,60.597561],[-152.171254,60.580878],[-152.232901,60.559881],[-152.3155,60.505845],[-152.329579,60.492499],[-152.340077,60.476142],[-152.343373,60.457424],[-152.335927,60.436957],[-152.317576,60.420559],[-152.24592,60.402167],[-152.24592,60.395982],[-152.368113,60.357856],[-152.39741,60.33393],[-152.40392,60.309801],[-152.407664,60.303209],[-152.415964,60.297756],[-152.467763,60.282294],[-152.512644,60.274604],[-152.534535,60.265692],[-152.596303,60.228461],[-152.61616,60.22427],[-152.671742,60.245185],[-152.805531,60.235093],[-152.849843,60.245185],[-152.840891,60.256049],[-152.787831,60.25141],[-152.787831,60.258857],[-152.839548,60.268378],[-152.863596,60.265815],[-152.890818,60.25141],[-152.898549,60.275377],[-152.897817,60.295152],[-152.905588,60.308539],[-152.938588,60.313463],[-153.012196,60.313463],[-153.048451,60.309638],[-153.082631,60.299791],[-153.105458,60.28559],[-153.103627,60.277086],[-153.086985,60.27733],[-153.065256,60.289537],[-153.037953,60.299384],[-152.996897,60.300849],[-152.956614,60.293891],[-152.931833,60.278713],[-152.929758,60.27025],[-152.933461,60.253119],[-152.931833,60.245185],[-152.922719,60.237209],[-152.89741,60.227362],[-152.86266,60.207709],[-152.767323,60.190619],[-152.732533,60.170111],[-152.698435,60.170111],[-152.683054,60.162828],[-152.676625,60.157945],[-152.686269,60.151597],[-152.684438,60.142483],[-152.677805,60.133368],[-152.657908,60.12637],[-152.590281,60.092231],[-152.578562,60.081204],[-152.578603,60.070136],[-152.597971,60.04267],[-152.610951,60.033352],[-152.630116,60.032294],[-152.630116,60.025458],[-152.617136,60.019273],[-152.664784,59.994696],[-152.677927,59.984524],[-152.690134,59.966986],[-152.704579,59.93065],[-152.718861,59.915595],[-152.737904,59.908393],[-152.808298,59.896308],[-152.831166,59.887397],[-152.856679,59.882066],[-152.905466,59.886217],[-152.934804,59.879625],[-153.021189,59.888902],[-153.091908,59.876899],[-153.2,59.87029275904454],[-153.2,61.1],[-151.122501047271,61.1]]],[[[-153.2,59.83222624093377],[-153.150828,59.819648],[-153.059275,59.833645],[-153.013865,59.832343],[-153.005686,59.827053],[-153.000071,59.813178],[-153.000071,59.80036],[-153.011342,59.785956],[-153.019236,59.762844],[-153.044423,59.722357],[-153.055287,59.71015],[-153.079294,59.701361],[-153.139475,59.686916],[-153.15156,59.673245],[-153.166249,59.664008],[-153.2,59.65417082894773],[-153.2,59.83222624093377]]],[[[-152.334218,58.911933],[-152.363271,58.915717],[-152.363271,58.922512],[-152.340159,58.924791],[-152.327219,58.935045],[-152.323801,58.951117],[-152.329091,58.970893],[-152.309071,58.970404],[-152.273386,58.959418],[-152.253123,58.956692],[-152.157786,58.956692],[-152.164011,58.94302],[-152.176951,58.939114],[-152.212392,58.94302],[-152.239817,58.925279],[-152.249705,58.922512],[-152.334218,58.911933]]],[[[-150.681996,59.405178],[-150.653798,59.407213],[-150.626902,59.399848],[-150.608591,59.381171],[-150.6551,59.332994],[-150.67748,59.31977],[-150.699941,59.31391],[-150.731638,59.31151],[-150.76183,59.316799],[-150.779856,59.334052],[-150.746205,59.357856],[-150.723582,59.366034],[-150.704172,59.395453],[-150.681996,59.405178]]],[[[-150.334828,59.456977],[-150.294626,59.464586],[-150.293894,59.456977],[-150.302195,59.449164],[-150.3037,59.430487],[-150.314402,59.422187],[-150.321278,59.422349],[-150.33141,59.436428],[-150.34911,59.430243],[-150.379099,59.431383],[-150.426991,59.401679],[-150.443471,59.402289],[-150.423695,59.435981],[-150.410512,59.446275],[-150.334828,59.456977]]],[[[-147.993072,60.044582],[-147.990468,60.039496],[-147.995025,60.03266],[-148.081166,59.971666],[-148.142161,59.946723],[-148.155955,59.943549],[-148.244985,59.943549],[-148.229115,59.949368],[-148.196238,59.953355],[-148.182322,59.964057],[-148.210194,59.964057],[-148.203359,59.972846],[-148.189768,59.977688],[-148.189768,59.984524],[-148.223256,59.984524],[-148.223256,59.99136],[-148.202992,59.995551],[-148.186838,59.99315],[-148.159373,59.97427],[-148.144846,59.972398],[-148.106068,59.992092],[-148.078196,60.001044],[-148.032094,60.025458],[-148.013417,60.043931],[-148.005035,60.046576],[-147.993072,60.044582]]],[[[-147.843251,60.030463],[-147.867502,60.008857],[-147.895172,59.990424],[-147.938588,59.97191],[-147.98176,59.959052],[-148.035715,59.952582],[-148.046376,59.957099],[-148.035512,59.97427],[-148.007517,59.996243],[-147.947255,60.029039],[-147.891754,60.069037],[-147.876576,60.076361],[-147.846588,60.081244],[-147.829701,60.077867],[-147.819976,60.068915],[-147.82665,60.052802],[-147.843251,60.030463]]],[[[-148.019154,60.074652],[-148.044423,60.070299],[-148.059397,60.052802],[-148.032094,60.052802],[-148.093332,60.017768],[-148.124867,60.004136],[-148.141306,60.011786],[-148.133127,60.031073],[-148.109568,60.056301],[-148.080556,60.078192],[-148.0454,60.091783],[-148.018259,60.110582],[-148.001332,60.114814],[-147.966461,60.156562],[-147.953114,60.129462],[-147.953236,60.121649],[-147.914784,60.125474],[-147.899037,60.121975],[-147.881256,60.107367],[-147.896474,60.095608],[-147.918365,60.086005],[-147.963775,60.07392],[-148.019154,60.074652]]],[[[-148.168813,60.037746],[-148.258616,60.023139],[-148.286,60.023993],[-148.313832,60.032294],[-148.287343,60.04267],[-148.21996,60.039781],[-148.189768,60.046576],[-148.213246,60.054267],[-148.299631,60.052802],[-148.299631,60.060248],[-148.271189,60.067206],[-148.21581,60.073676],[-148.189768,60.087551],[-148.26301,60.08869],[-148.285959,60.094387],[-148.27123,60.102973],[-148.140818,60.147895],[-148.118723,60.150295],[-148.114003,60.129096],[-148.088083,60.146715],[-148.077463,60.15998],[-148.069325,60.186957],[-148.060618,60.195136],[-148.049998,60.195705],[-148.040964,60.186591],[-148.051707,60.168931],[-148.081248,60.134996],[-148.090403,60.100246],[-148.099233,60.083482],[-148.11323,60.071234],[-148.137318,60.063544],[-148.168813,60.037746]]],[[[-147.0808,60.280341],[-146.922271,60.313463],[-146.922271,60.306627],[-146.9287,60.304836],[-146.942128,60.292955],[-146.97057,60.259182],[-147.010487,60.23371],[-147.233795,60.133124],[-147.328196,60.070258],[-147.371083,60.028876],[-147.376617,60.01553],[-147.353668,59.99136],[-147.367014,59.972846],[-147.427235,59.97663],[-147.452992,59.967475],[-147.487416,59.943549],[-147.490305,59.939195],[-147.456125,59.915595],[-147.453603,59.895901],[-147.468251,59.876776],[-147.49234,59.861802],[-147.518788,59.854193],[-147.601145,59.866767],[-147.643707,59.862616],[-147.668772,59.819281],[-147.684234,59.817084],[-147.716786,59.820014],[-147.800608,59.80329],[-147.84024,59.786526],[-147.86144,59.782457],[-147.878774,59.783149],[-147.915395,59.79267],[-147.915395,59.799547],[-147.898793,59.810207],[-147.886138,59.857611],[-147.857655,59.868476],[-147.825429,59.870795],[-147.793772,59.877753],[-147.763905,59.888495],[-147.737213,59.902533],[-147.790679,59.910956],[-147.804921,59.920356],[-147.778798,59.943549],[-147.752431,59.953843],[-147.695709,59.962144],[-147.668935,59.970893],[-147.682525,59.987047],[-147.703114,59.997504],[-147.680979,60.008734],[-147.533111,60.05858],[-147.515045,60.070136],[-147.424631,60.111233],[-147.380198,60.139594],[-147.387807,60.162665],[-147.374094,60.170559],[-147.342152,60.179755],[-147.329742,60.187201],[-147.303822,60.226874],[-147.295644,60.232164],[-147.254709,60.224677],[-147.228831,60.236233],[-147.201161,60.242174],[-147.197011,60.251207],[-147.209625,60.2862],[-147.20759,60.294989],[-147.191762,60.310248],[-147.178049,60.31859],[-147.175526,60.327094],[-147.179921,60.332017],[-147.20287,60.341376],[-147.189605,60.362209],[-147.155141,60.376451],[-147.115549,60.381659],[-147.086781,60.375556],[-147.106516,60.363918],[-147.120269,60.347602],[-147.011057,60.347602],[-147.026519,60.330756],[-147.107249,60.2862],[-147.0808,60.280341]]],[[[-147.977447,60.375556],[-148.00475,60.344468],[-148.018422,60.299791],[-148.042226,60.286566],[-148.073313,60.285142],[-148.104441,60.292873],[-148.128285,60.306627],[-148.135121,60.299791],[-148.127065,60.334947],[-148.075632,60.369371],[-148.014394,60.387926],[-147.977447,60.375556]]],[[[-146.093658,60.410346],[-146.078765,60.402167],[-146.085683,60.402655],[-146.099843,60.395982],[-146.188629,60.382392],[-146.192698,60.377346],[-146.195465,60.361274],[-146.223988,60.351386],[-146.251617,60.350287],[-146.305043,60.355048],[-146.333608,60.35224],[-146.493276,60.303778],[-146.553944,60.261217],[-146.578521,60.249905],[-146.600168,60.245185],[-146.64859,60.25788],[-146.67219,60.270941],[-146.682037,60.2862],[-146.655629,60.306789],[-146.490305,60.361274],[-146.504791,60.370429],[-146.567698,60.363227],[-146.593332,60.368109],[-146.57901,60.375556],[-146.59911,60.375474],[-146.615956,60.37108],[-146.647939,60.355048],[-146.61384,60.355048],[-146.655588,60.340644],[-146.700551,60.354804],[-146.722646,60.386217],[-146.695709,60.423326],[-146.660308,60.430162],[-146.654775,60.433905],[-146.652089,60.442206],[-146.634348,60.464911],[-146.61266,60.478095],[-146.588124,60.484036],[-146.530629,60.485419],[-146.530629,60.477973],[-146.544911,60.464911],[-146.445627,60.464911],[-146.379018,60.47606],[-146.353098,60.471137],[-146.36205,60.453803],[-146.361643,60.426215],[-146.36677,60.409654],[-146.323557,60.410712],[-146.238393,60.431627],[-146.151357,60.438788],[-146.129628,60.436225],[-146.120351,60.427069],[-146.188629,60.402167],[-146.093658,60.410346]]],[[[-147.785878,60.410549],[-147.84024,60.395982],[-147.812489,60.446234],[-147.792795,60.471747],[-147.771392,60.485419],[-147.772532,60.453925],[-147.776682,60.441718],[-147.785715,60.430813],[-147.72997,60.441392],[-147.710113,60.452582],[-147.72053,60.474555],[-147.723785,60.492906],[-147.70816,60.506781],[-147.68928,60.50373],[-147.682607,60.471137],[-147.645253,60.4831],[-147.634511,60.481676],[-147.627187,60.474433],[-147.62857,60.466986],[-147.641672,60.457465],[-147.641672,60.450629],[-147.614369,60.436957],[-147.634185,60.423326],[-147.662424,60.42121],[-147.710927,60.401801],[-147.737213,60.395982],[-147.715443,60.383287],[-147.693512,60.384711],[-147.648508,60.395982],[-147.625356,60.389594],[-147.631012,60.374823],[-147.66218,60.347602],[-147.694732,60.302802],[-147.738759,60.259833],[-147.738759,60.249986],[-147.710561,60.25141],[-147.723704,60.221381],[-147.741282,60.19359],[-147.765614,60.174384],[-147.798695,60.170111],[-147.796213,60.188056],[-147.8308,60.186916],[-147.84024,60.193671],[-147.79247,60.238349],[-147.798695,60.245185],[-147.822499,60.232367],[-147.851715,60.227932],[-147.881907,60.230455],[-147.908559,60.238349],[-147.90331,60.252875],[-147.895985,60.260321],[-147.867584,60.272528],[-147.908559,60.292955],[-147.870473,60.292426],[-147.822825,60.29914],[-147.780385,60.314846],[-147.757721,60.341376],[-147.860748,60.327094],[-147.872711,60.328925],[-147.874989,60.333401],[-147.860748,60.344468],[-147.847808,60.346422],[-147.820627,60.34276],[-147.806142,60.347602],[-147.846181,60.366278],[-147.860585,60.377387],[-147.847076,60.382392],[-147.80134,60.385891],[-147.786285,60.393988],[-147.771392,60.409654],[-147.785878,60.410549]]],[[[-151.879709,60.477362],[-151.897084,60.450629],[-151.908803,60.44359],[-151.944936,60.436957],[-151.96349,60.426174],[-151.978627,60.408271],[-151.982167,60.389472],[-151.966013,60.375556],[-152.038564,60.350409],[-152.061594,60.347602],[-152.072825,60.349758],[-152.08967,60.359117],[-152.027455,60.368109],[-152.021596,60.376207],[-152.023061,60.394273],[-152.020619,60.402167],[-151.990224,60.419094],[-151.98054,60.440416],[-151.971059,60.452094],[-151.967478,60.465806],[-151.979685,60.485419],[-151.953196,60.50849],[-151.943064,60.511623],[-151.904164,60.510565],[-151.884023,60.505683],[-151.8662,60.497301],[-151.85615,60.485419],[-151.869822,60.485419],[-151.879709,60.477362]]],[[[-145.871734,60.543891],[-145.913686,60.536811],[-145.962717,60.518948],[-146.014638,60.508938],[-146.0631,60.488267],[-146.096913,60.479682],[-146.29426,60.454779],[-146.332631,60.464911],[-146.317942,60.493842],[-146.305735,60.510159],[-146.286448,60.51732],[-146.120107,60.519477],[-146.093088,60.525784],[-146.120351,60.539374],[-146.034088,60.558295],[-145.949045,60.567328],[-145.949045,60.574164],[-145.969553,60.587836],[-145.858754,60.595608],[-145.8,60.608852486774005],[-145.8,60.57370820855493],[-145.871734,60.543891]]],[[[-147.49767,60.656684],[-147.449859,60.669745],[-147.448476,60.680976],[-147.455393,60.687812],[-147.477162,60.690172],[-147.466298,60.698065],[-147.428782,60.711371],[-147.413075,60.702053],[-147.374338,60.664862],[-147.364247,60.666327],[-147.338979,60.679348],[-147.312734,60.684027],[-147.325022,60.657172],[-147.339711,60.645575],[-147.402943,60.648383],[-147.44929,60.638129],[-147.477162,60.635647],[-147.461049,60.648342],[-147.449859,60.662909],[-147.49767,60.656684]]],[[[-147.929067,60.718166],[-147.919504,60.741645],[-147.90982,60.744818],[-147.881256,60.731513],[-147.852447,60.706732],[-147.847076,60.693996],[-147.857533,60.687201],[-147.922231,60.684027],[-147.928334,60.667141],[-147.935902,60.662909],[-147.966908,60.680325],[-148.012196,60.725002],[-147.994618,60.73135],[-147.949534,60.711371],[-147.965484,60.733832],[-147.96935,60.746649],[-147.960357,60.752346],[-147.94933,60.748725],[-147.929067,60.718166]]],[[[-148.194529,60.681464],[-148.222239,60.706122],[-148.230092,60.729722],[-148.196604,60.744818],[-148.21703,60.759101],[-148.158681,60.764716],[-148.124094,60.751125],[-148.111155,60.738105],[-148.110056,60.725328],[-148.128285,60.718166],[-148.128285,60.711371],[-148.108022,60.709703],[-148.098744,60.696845],[-148.099192,60.679145],[-148.107777,60.662909],[-148.124745,60.650539],[-148.140492,60.648668],[-148.155141,60.653998],[-148.194529,60.681464]]],[[[-148.116038,60.797553],[-148.127146,60.800605],[-148.135121,60.813137],[-148.13683,60.826361],[-148.128285,60.8581],[-148.111399,60.877509],[-148.081492,60.892035],[-148.069895,60.904242],[-148.107777,60.916815],[-148.107777,60.923],[-148.089467,60.922431],[-148.032094,60.930406],[-147.967641,60.905585],[-147.9405,60.88581],[-147.943267,60.861558],[-147.919342,60.838324],[-147.912343,60.825426],[-147.915395,60.813137],[-147.929189,60.806342],[-147.966908,60.827379],[-148.008494,60.796332],[-148.023793,60.791205],[-148.087351,60.800116],[-148.116038,60.797553]]],[[[-152.013051,58.945299],[-152.013132,58.939846],[-152.042511,58.929755],[-152.055165,58.914293],[-152.065094,58.911282],[-152.074656,58.914293],[-152.075144,58.919664],[-152.063791,58.932481],[-152.060455,58.944403],[-152.047271,58.944241],[-152.041819,58.951565],[-152.013051,58.945299]]],[[[-151.670166,59.11808],[-151.64372,59.115749],[-151.646924,59.103936],[-151.66256,59.09819],[-151.699838,59.097939],[-151.713647,59.105835],[-151.721582,59.121897],[-151.708514,59.13072],[-151.687859,59.129656],[-151.670166,59.11808]]],[[[-151.500251,59.137327],[-151.433561,59.135292],[-151.438209,59.127182],[-151.428281,59.117302],[-151.438933,59.107286],[-151.459556,59.109014],[-151.508501,59.128566],[-151.500251,59.137327]]],[[[-151.816822,59.170664],[-151.788782,59.153053],[-151.800758,59.138893],[-151.853312,59.144766],[-151.89319,59.144364],[-151.888676,59.157183],[-151.816822,59.170664]]],[[[-146.3131,59.455756],[-146.308217,59.447089],[-146.322418,59.425849],[-146.340688,59.411444],[-146.358551,59.410102],[-146.358632,59.422431],[-146.323598,59.452135],[-146.3131,59.455756]]],[[[-152.558298,60.134996],[-152.558217,60.108344],[-152.580149,60.107245],[-152.611155,60.131049],[-152.628285,60.148627],[-152.635691,60.157945],[-152.638132,60.167304],[-152.632395,60.174791],[-152.620473,60.179267],[-152.604604,60.178616],[-152.586171,60.172065],[-152.569447,60.158759],[-152.558298,60.134996]]],[[[-147.349233,60.301703],[-147.343414,60.298733],[-147.347808,60.273586],[-147.370269,60.262844],[-147.472727,60.22956],[-147.491811,60.228827],[-147.494862,60.237128],[-147.492258,60.25259],[-147.500966,60.258368],[-147.493886,60.263129],[-147.438954,60.273342],[-147.366038,60.299018],[-147.349233,60.301703]]],[[[-146.80643,60.854186],[-146.77531,60.857095],[-146.761376,60.868211],[-146.76162,60.87925],[-146.738741,60.871071],[-146.712851,60.853252],[-146.704063,60.839486],[-146.734711,60.81452],[-146.76558,60.801956],[-146.796809,60.805939],[-146.811255,60.818283],[-146.820306,60.841694],[-146.80643,60.854186]]],[[[-147.078236,60.892768],[-147.07665,60.886908],[-147.08316,60.878485],[-147.104115,60.866156],[-147.139638,60.855618],[-147.166249,60.854926],[-147.182688,60.858222],[-147.190297,60.862982],[-147.182851,60.875718],[-147.189443,60.877509],[-147.216379,60.877102],[-147.221995,60.875434],[-147.219594,60.871405],[-147.229644,60.867825],[-147.253774,60.868109],[-147.318918,60.877265],[-147.318715,60.879625],[-147.29011,60.889309],[-147.266103,60.889228],[-147.246653,60.901801],[-147.226918,60.906806],[-147.21524,60.907294],[-147.212717,60.902045],[-147.217519,60.89468],[-147.21467,60.892483],[-147.194407,60.904242],[-147.180979,60.903144],[-147.175852,60.89997],[-147.180043,60.896633],[-147.177642,60.894355],[-147.16804,60.892524],[-147.142323,60.909166],[-147.136586,60.908271],[-147.135894,60.901313],[-147.119211,60.905666],[-147.1197,60.898139],[-147.131947,60.887681],[-147.158193,60.875474],[-147.152699,60.873521],[-147.112294,60.884426],[-147.102203,60.897691],[-147.097076,60.899644],[-147.078236,60.892768]]]]}}]}},"salish":{"bounds":[-123.5,47.9,-122.4,49.15],"land":{"type":"FeatureCollection","features":[{"type":"Feature","properties":{"name":"United States of America"},"geometry":{"type":"MultiPolygon","coordinates":[[[[-122.753017,48.992515],[-122.4,48.992515],[-122.4,48.31478144843796],[-122.425364,48.330227],[-122.455149,48.342475],[-122.478627,48.359809],[-122.491363,48.365058],[-122.522694,48.368964],[-122.533762,48.374661],[-122.553538,48.401313],[-122.567047,48.409898],[-122.567047,48.417385],[-122.552073,48.427883],[-122.558949,48.434027],[-122.584462,48.437812],[-122.591705,48.434068],[-122.615549,48.409898],[-122.646596,48.403754],[-122.661773,48.406236],[-122.673573,48.413642],[-122.683461,48.430162],[-122.663319,48.454901],[-122.669342,48.472805],[-122.704905,48.486274],[-122.702382,48.497992],[-122.672475,48.498969],[-122.633046,48.516262],[-122.613271,48.500312],[-122.597035,48.474555],[-122.580719,48.458319],[-122.580881,48.484524],[-122.568349,48.489488],[-122.551015,48.481513],[-122.527211,48.460354],[-122.514272,48.453192],[-122.5006,48.450426],[-122.488881,48.454901],[-122.480824,48.464097],[-122.480133,48.470282],[-122.494252,48.529364],[-122.515859,48.557603],[-122.55602,48.576606],[-122.567006,48.585354],[-122.54662,48.58869],[-122.525136,48.583197],[-122.485341,48.559801],[-122.468088,48.554511],[-122.447621,48.562161],[-122.440297,48.580715],[-122.444325,48.603258],[-122.457875,48.62344],[-122.48412,48.634752],[-122.492584,48.643256],[-122.497141,48.653551],[-122.502553,48.684882],[-122.525136,48.692288],[-122.521108,48.709052],[-122.49885,48.739488],[-122.508616,48.755683],[-122.529937,48.768622],[-122.554677,48.77733],[-122.574534,48.780463],[-122.593617,48.774115],[-122.639719,48.722398],[-122.65038,48.718166],[-122.660146,48.722561],[-122.667348,48.731879],[-122.670155,48.742906],[-122.649648,48.763658],[-122.658193,48.77733],[-122.676991,48.793443],[-122.695953,48.800767],[-122.704905,48.787909],[-122.700592,48.812161],[-122.703847,48.827379],[-122.714223,48.838202],[-122.757558,48.864244],[-122.768219,48.87401],[-122.772532,48.886542],[-122.768381,48.897406],[-122.745839,48.91767],[-122.75886,48.93594],[-122.808095,48.934516],[-122.813547,48.951809],[-122.801015,48.962307],[-122.777496,48.964789],[-122.731557,48.959215],[-122.753017,48.992515]]],[[[-123.475606,48.133607],[-123.435896,48.142407],[-123.418506,48.142303],[-123.405022,48.138998],[-123.453429,48.131549],[-123.449661,48.125109],[-123.421734,48.117828],[-123.322326,48.114613],[-123.287461,48.118217],[-123.246927,48.115334],[-123.223622,48.122016],[-123.170601,48.164374],[-123.150033,48.177102],[-123.108251,48.183838],[-123.130722,48.173712],[-123.161285,48.151923],[-123.111809,48.149028],[-123.089182,48.128485],[-123.063029,48.117603],[-123.040454,48.085113],[-123.045277,48.059719],[-123.029693,48.045233],[-123.007883,48.03856],[-122.996816,48.038642],[-123.005727,48.078681],[-122.999135,48.091742],[-122.956939,48.09748],[-122.92748,48.09512],[-122.921742,48.086127],[-122.918772,48.070217],[-122.910797,48.066107],[-122.886952,48.062567],[-122.872548,48.04975],[-122.857289,48.029527],[-122.853383,48.010443],[-122.87328,48.001125],[-122.87328,47.99372],[-122.85436,47.995266],[-122.841379,48.005561],[-122.824859,48.035224],[-122.836903,48.049872],[-122.877065,48.079657],[-122.881663,48.091742],[-122.877756,48.106635],[-122.868316,48.119289],[-122.856272,48.124579],[-122.823842,48.13109],[-122.794911,48.141181],[-122.770172,48.141099],[-122.750396,48.117174],[-122.784535,48.102932],[-122.791371,48.096747],[-122.791982,48.082913],[-122.77538,48.065579],[-122.764638,48.044623],[-122.722483,47.99372],[-122.688344,47.973212],[-122.682525,47.944078],[-122.67809,47.935696],[-122.63795588474959,47.9],[-123.5,47.9],[-123.5,48.1328141970412],[-123.475606,48.133607]]],[[[-122.58670568685076,47.9],[-122.610992,47.935981],[-122.613189,47.94595],[-122.553375,47.920844],[-122.528066,47.905504],[-122.52573071052954,47.9],[-122.58670568685076,47.9]]],[[[-122.4,48.22049302278236],[-122.435943,48.234605],[-122.444203,48.232367],[-122.448964,48.222846],[-122.446116,48.202216],[-122.466624,48.192043],[-122.469472,48.177069],[-122.465728,48.159084],[-122.457875,48.143622],[-122.432118,48.122463],[-122.414622,48.112494],[-122.4,48.10827679881177],[-122.4,48.08397651845838],[-122.489654,48.130439],[-122.510365,48.147447],[-122.526112,48.170966],[-122.533274,48.196112],[-122.531239,48.219875],[-122.53395,48.249677],[-122.49885,48.252875],[-122.465159,48.259955],[-122.429921,48.259101],[-122.4,48.23555999542373],[-122.4,48.22049302278236]]],[[[-123.035308,48.992499],[-123.045277,48.984361],[-123.08849,48.972235],[-123.090506,48.992515],[-123.035308,48.992499]]],[[[-122.718902,48.10224],[-122.709218,48.10224],[-122.701161,48.097602],[-122.686879,48.073228],[-122.677113,48.048651],[-122.673207,48.023749],[-122.681508,48.00727],[-122.700185,48.007758],[-122.7176,48.023017],[-122.736724,48.055732],[-122.740875,48.074368],[-122.738922,48.082506],[-122.729319,48.082994],[-122.723012,48.076239],[-122.720326,48.054755],[-122.716298,48.048285],[-122.701975,48.049221],[-122.70165,48.064399],[-122.711985,48.083645],[-122.729319,48.096747],[-122.718902,48.10224]]],[[[-122.40038,47.919176],[-122.435414,47.910468],[-122.441314,47.915473],[-122.443349,47.936916],[-122.449696,47.959459],[-122.46052,47.977851],[-122.476064,47.986884],[-122.488515,47.985093],[-122.51769,47.966295],[-122.530344,47.967353],[-122.562001,47.987372],[-122.58019,48.004869],[-122.593332,48.025377],[-122.592152,48.04206],[-122.609771,48.060492],[-122.614858,48.074897],[-122.600168,48.130113],[-122.607249,48.153754],[-122.622955,48.163316],[-122.644399,48.161444],[-122.668446,48.15058],[-122.693227,48.180243],[-122.723541,48.192694],[-122.74413,48.205878],[-122.755727,48.229641],[-122.75121,48.249945],[-122.668446,48.36286],[-122.656565,48.385077],[-122.630849,48.38467],[-122.595774,48.401923],[-122.57901,48.377143],[-122.577707,48.356676],[-122.515981,48.321967],[-122.517568,48.294013],[-122.530873,48.28384],[-122.546376,48.281399],[-122.562123,48.2862],[-122.593984,48.307929],[-122.608998,48.29914],[-122.627431,48.267279],[-122.641265,48.287991],[-122.646799,48.280829],[-122.651357,48.249945],[-122.665924,48.242174],[-122.723704,48.233791],[-122.710072,48.221422],[-122.696116,48.22016],[-122.665028,48.226386],[-122.651926,48.224066],[-122.59553,48.20539],[-122.580637,48.188463],[-122.571034,48.166246],[-122.558665,48.121324],[-122.554596,48.066067],[-122.54662,48.017035],[-122.535512,48.005927],[-122.522043,48.011949],[-122.510243,48.035224],[-122.522857,48.057074],[-122.524037,48.079413],[-122.514027,48.090766],[-122.493153,48.079657],[-122.460032,48.053453],[-122.4,48.02482983000798],[-122.40038,47.919176]]],[[[-122.858469,48.472846],[-122.849355,48.461615],[-122.836293,48.459947],[-122.820953,48.472602],[-122.808339,48.458197],[-122.806142,48.442043],[-122.8131,48.427314],[-122.827748,48.417385],[-122.889882,48.42414],[-122.883453,48.441474],[-122.898671,48.447903],[-122.921376,48.450995],[-122.937611,48.458319],[-122.942535,48.475775],[-122.937001,48.493232],[-122.924875,48.507148],[-122.910308,48.513577],[-122.916249,48.523871],[-122.916982,48.533637],[-122.910308,48.547065],[-122.887074,48.563666],[-122.877024,48.565863],[-122.860748,48.539618],[-122.859039,48.521308],[-122.861928,48.489325],[-122.858469,48.472846]]],[[[-122.693715,48.585924],[-122.67455,48.568793],[-122.685902,48.556952],[-122.688059,48.547024],[-122.694081,48.543524],[-122.714345,48.541938],[-122.72289,48.548163],[-122.73705,48.577135],[-122.735422,48.590399],[-122.726796,48.601508],[-122.715484,48.606024],[-122.70287,48.600409],[-122.693715,48.585924]]],[[[-123.020172,48.499335],[-122.999135,48.472602],[-122.9829,48.463609],[-122.964955,48.458319],[-122.964955,48.451483],[-122.979319,48.456366],[-123.016469,48.451483],[-123.030019,48.453803],[-123.065419,48.478502],[-123.102651,48.480292],[-123.139312,48.495836],[-123.154449,48.513129],[-123.166575,48.543524],[-123.177561,48.598822],[-123.158437,48.614569],[-123.12914,48.620063],[-123.102122,48.609117],[-123.093821,48.597602],[-123.057769,48.572903],[-123.024648,48.562812],[-123.004303,48.539455],[-122.977651,48.531317],[-122.97997,48.525133],[-122.992258,48.513577],[-123.002349,48.509182],[-123.016591,48.51142],[-123.020172,48.499335]]],[[[-122.750885,48.654731],[-122.800445,48.629625],[-122.808949,48.611274],[-122.820953,48.609117],[-122.841379,48.620917],[-122.865875,48.649604],[-122.88679,48.696275],[-122.896352,48.699774],[-122.905914,48.697333],[-122.910308,48.687974],[-122.905629,48.666083],[-122.910308,48.657538],[-122.861928,48.601711],[-122.874379,48.593736],[-122.887522,48.589993],[-122.917144,48.58869],[-122.933339,48.59276],[-122.951283,48.62344],[-122.980092,48.638617],[-122.985463,48.633043],[-122.989613,48.604641],[-122.99706,48.597154],[-123.009633,48.605414],[-123.026519,48.626532],[-123.026357,48.636461],[-123.020904,48.642483],[-122.997141,48.66059],[-122.977773,48.667792],[-122.929311,48.708441],[-122.917958,48.711412],[-122.857818,48.708686],[-122.745839,48.664374],[-122.750885,48.654731]]],[[[-122.615346,48.658637],[-122.613149,48.648424],[-122.620473,48.645941],[-122.662221,48.670315],[-122.703114,48.707913],[-122.716542,48.715237],[-122.720286,48.724921],[-122.715159,48.739081],[-122.698476,48.734687],[-122.671376,48.70482],[-122.635162,48.683295],[-122.615346,48.658637]]]]}},{"type":"Feature","properties":{"name":"Canada"},"geometry":{"type":"MultiPolygon","coordinates":[[[[-122.4,48.992515],[-122.753017,48.992515],[-122.759511,49.001166],[-122.781809,49.01732],[-122.823232,49.006985],[-122.853017,49.017035],[-122.876047,49.036526],[-122.8756,49.054755],[-122.865346,49.070054],[-122.867747,49.080471],[-122.881744,49.086493],[-122.906606,49.088324],[-122.951283,49.082953],[-123.032826,49.050605],[-123.048573,49.035224],[-123.044057,49.017279],[-123.032053,48.995185],[-123.035308,48.992499],[-123.090506,48.992515],[-123.100494,49.021186],[-123.108306,49.033677],[-123.138783,49.053778],[-123.142974,49.06094],[-123.129465,49.074652],[-123.075673,49.105658],[-123.05427,49.123236],[-123.0411817183362,49.15],[-122.4,49.15],[-122.4,48.992515]]],[[[-123.081125,49.128363],[-123.123402,49.115871],[-123.167144,49.115627],[-123.211985,49.12995],[-123.211985,49.136705],[-123.20026927585207,49.15],[-123.04251347994705,49.15],[-123.081125,49.128363]]],[[[-123.283111,48.611274],[-123.280344,48.601304],[-123.287953,48.591254],[-123.302887,48.596991],[-123.336659,48.63109],[-123.338002,48.634223],[-123.332672,48.629543],[-123.331939,48.634426],[-123.337473,48.648424],[-123.305287,48.618801],[-123.283111,48.611274]]],[[[-123.382314,48.756171],[-123.407582,48.754055],[-123.458404,48.767401],[-123.428538,48.738349],[-123.427642,48.72956],[-123.461008,48.715399],[-123.482086,48.712226],[-123.5,48.718092840019025],[-123.5,48.8895412295132],[-123.43106,48.841946],[-123.458811,48.844916],[-123.488637,48.862291],[-123.498769,48.856269],[-123.499989,48.849351],[-123.472035,48.828274],[-123.369008,48.774237],[-123.382314,48.756171]]],[[[-123.471913,48.938137],[-123.39094,48.920152],[-123.365956,48.907131],[-123.334462,48.902981],[-123.321848,48.896552],[-123.314443,48.88231],[-123.317128,48.869818],[-123.327382,48.863959],[-123.342356,48.869818],[-123.369293,48.861884],[-123.394521,48.872382],[-123.437327,48.903998],[-123.5,48.929465950119884],[-123.5,48.95243254694036],[-123.471913,48.938137]]],[[[-123.302235,48.484198],[-123.28718,48.468329],[-123.280629,48.448391],[-123.287099,48.42414],[-123.30248,48.414293],[-123.330393,48.404771],[-123.357045,48.40058],[-123.437327,48.444648],[-123.453359,48.43358],[-123.480214,48.39232],[-123.5,48.38252633786695],[-123.5,48.556530934288126],[-123.472035,48.575019],[-123.478505,48.590806],[-123.475006,48.621243],[-123.478871,48.636461],[-123.437327,48.650092],[-123.461781,48.663235],[-123.471791,48.672431],[-123.472035,48.684882],[-123.463002,48.689643],[-123.428293,48.69245],[-123.416819,48.691107],[-123.399241,48.681545],[-123.388661,48.634833],[-123.393219,48.629625],[-123.355336,48.560736],[-123.345774,48.523383],[-123.337066,48.508043],[-123.302235,48.484198]]],[[[-123.287221,48.812812],[-123.25182,48.790188],[-123.249013,48.777411],[-123.250396,48.766099],[-123.240468,48.761868],[-123.219228,48.761868],[-123.1881,48.756171],[-123.182444,48.743476],[-123.186676,48.736396],[-123.199452,48.732123],[-123.257476,48.739203],[-123.306996,48.764635],[-123.311269,48.771715],[-123.311269,48.797268],[-123.322621,48.805732],[-123.322621,48.812812],[-123.312652,48.817084],[-123.298573,48.815619],[-123.287221,48.812812]]],[[[-123.101715,48.761868],[-123.120188,48.764635],[-123.158355,48.763251],[-123.203684,48.784491],[-123.203684,48.808539],[-123.207916,48.815619],[-123.222076,48.822699],[-123.2235,48.832668],[-123.203684,48.829779],[-123.179596,48.815619],[-123.141428,48.801459],[-123.053619,48.795844],[-123.043772,48.788764],[-123.042307,48.784491],[-123.070627,48.778795],[-123.101715,48.761868]]]]}}]}}}
